{"type":"FeatureCollection","features":[{"type":"Feature","properties":{"district":"Washim","state":"Maharashtra"},"geometry":{"type":"MultiPolygon","coordinates":[[[[77.57789,20.72692],[77.59077,20.72641],[77.59363,20.72285],[77.59832,20.72002],[77.59822,20.71837],[77.60855,20.71751],[77.61273,20.71775],[77.62131,20.71666],[77.63402,20.71288],[77.63513,20.71137],[77.63213,20.70939],[77.63139,20.70145],[77.63331,20.69862],[77.63478,20.69788],[77.63793,20.69438],[77.63681,20.68515],[77.63211,20.6715],[77.6362,20.67005],[77.63522,20.65921],[77.63467,20.65823],[77.64526,20.65973],[77.6476,20.66154],[77.65399,20.66187],[77.65485,20.65936],[77.65047,20.65305],[77.64828,20.64869],[77.65972,20.64619],[77.65864,20.63647],[77.65731,20.63447],[77.65577,20.63405],[77.65407,20.6323],[77.6537,20.62663],[77.65288,20.62542],[77.65027,20.62552],[77.64809,20.62197],[77.64638,20.60851],[77.64709,20.60466],[77.64486,20.60493],[77.64339,20.59868],[77.63822,20.58559],[77.63558,20.58188],[77.63439,20.5787],[77.63253,20.57903],[77.63157,20.57474],[77.62807,20.5666],[77.64624,20.56402],[77.6504,20.56398],[77.64925,20.55388],[77.64696,20.54524],[77.64374,20.53634],[77.64293,20.53169],[77.65364,20.53126],[77.65572,20.53375],[77.66879,20.53998],[77.67666,20.53831],[77.69071,20.53401],[77.68965,20.52413],[77.68575,20.51939],[77.68172,20.52042],[77.67327,20.51916],[77.66719,20.51714],[77.66491,20.51253],[77.66393,20.50842],[77.66427,20.50601],[77.66216,20.50018],[77.65781,20.50018],[77.65497,20.49773],[77.65338,20.49789],[77.6529,20.49525],[77.65576,20.49488],[77.65403,20.48064],[77.65055,20.47617],[77.64837,20.47188],[77.64944,20.46609],[77.64925,20.45965],[77.64528,20.45519],[77.64286,20.45034],[77.6348,20.45252],[77.63271,20.45498],[77.62969,20.45553],[77.62705,20.45786],[77.62518,20.45863],[77.62185,20.45866],[77.61652,20.46065],[77.61358,20.46103],[77.61237,20.45564],[77.60552,20.45591],[77.60353,20.45131],[77.59791,20.44801],[77.59627,20.44819],[77.60155,20.4462],[77.60377,20.44183],[77.604,20.43695],[77.6037,20.43562],[77.60274,20.43592],[77.59308,20.42883],[77.59019,20.42923],[77.59233,20.42121],[77.59509,20.41962],[77.59608,20.41736],[77.59576,20.41234],[77.5939,20.41291],[77.58941,20.416],[77.58445,20.41743],[77.58142,20.41527],[77.58081,20.41364],[77.5813,20.41111],[77.58093,20.40777],[77.57659,20.40222],[77.57387,20.40067],[77.57409,20.39896],[77.57193,20.38787],[77.57245,20.38335],[77.5757,20.37405],[77.57632,20.37276],[77.57889,20.37225],[77.57475,20.36579],[77.56875,20.35995],[77.56948,20.3588],[77.56851,20.35786],[77.56896,20.35263],[77.56736,20.3462],[77.56791,20.33942],[77.56747,20.32963],[77.56906,20.32866],[77.5707,20.32932],[77.57216,20.32877],[77.57519,20.33093],[77.57902,20.32646],[77.58436,20.32696],[77.58313,20.32285],[77.58326,20.32133],[77.58607,20.3115],[77.58797,20.30881],[77.58792,20.30646],[77.58957,20.30652],[77.59257,20.3051],[77.5948,20.30305],[77.59378,20.29911],[77.59461,20.29772],[77.59379,20.29241],[77.5948,20.28647],[77.59433,20.28073],[77.59745,20.28072],[77.59795,20.28205],[77.5985,20.282],[77.61026,20.27883],[77.60949,20.27167],[77.61033,20.26409],[77.62108,20.26213],[77.63351,20.26141],[77.64359,20.25059],[77.65759,20.24935],[77.66543,20.2474],[77.66585,20.24422],[77.66538,20.24148],[77.65914,20.22948],[77.65879,20.22664],[77.65269,20.21467],[77.65312,20.21265],[77.65217,20.21052],[77.65334,20.20899],[77.65779,20.20727],[77.65578,20.2004],[77.65512,20.20053],[77.65487,20.19928],[77.65287,20.19736],[77.65142,20.19748],[77.65004,20.19413],[77.64857,20.19366],[77.64661,20.18945],[77.64477,20.18811],[77.64425,20.18695],[77.64954,20.18575],[77.649,20.17516],[77.65228,20.17412],[77.65191,20.17216],[77.65262,20.17169],[77.65578,20.17249],[77.65968,20.17218],[77.66127,20.17381],[77.66301,20.1736],[77.66818,20.17235],[77.66792,20.17103],[77.67206,20.17005],[77.67168,20.16871],[77.67465,20.16816],[77.67518,20.16707],[77.67623,20.16782],[77.67927,20.16734],[77.67947,20.16669],[77.67752,20.16142],[77.67787,20.1591],[77.6771,20.1549],[77.67651,20.15347],[77.6754,20.15336],[77.67377,20.14769],[77.67578,20.14399],[77.682,20.14431],[77.68213,20.14099],[77.67748,20.13056],[77.67035,20.11985],[77.6714,20.11517],[77.67122,20.1128],[77.6696,20.10861],[77.66989,20.10674],[77.66926,20.10607],[77.66894,20.10194],[77.66669,20.10041],[77.66636,20.0983],[77.66503,20.09892],[77.66214,20.09835],[77.65973,20.09968],[77.65979,20.09607],[77.65672,20.09772],[77.65508,20.08554],[77.65527,20.08],[77.65438,20.0804],[77.6529,20.0784],[77.65134,20.07839],[77.64949,20.07685],[77.64161,20.07514],[77.64048,20.07372],[77.64094,20.06438],[77.64023,20.06071],[77.6372,20.05846],[77.63743,20.05475],[77.62999,20.04529],[77.62706,20.04577],[77.62424,20.04154],[77.61915,20.04023],[77.61523,20.04036],[77.61399,20.03736],[77.61147,20.03852],[77.60759,20.03594],[77.60382,20.03628],[77.60103,20.03463],[77.59619,20.03785],[77.59556,20.03615],[77.59006,20.03207],[77.58462,20.03353],[77.58067,20.02883],[77.57535,20.03235],[77.57208,20.03581],[77.57039,20.04036],[77.56836,20.04277],[77.56582,20.04255],[77.56019,20.04829],[77.5549,20.04746],[77.55414,20.05218],[77.55234,20.0556],[77.5537,20.05711],[77.55158,20.05915],[77.5502,20.06551],[77.54375,20.06705],[77.54009,20.06994],[77.53985,20.07177],[77.53658,20.07636],[77.53639,20.07974],[77.53032,20.08505],[77.52632,20.09027],[77.5243,20.09555],[77.52482,20.09809],[77.51954,20.09354],[77.51302,20.09144],[77.50874,20.08897],[77.49869,20.08509],[77.49441,20.07876],[77.48561,20.07733],[77.48155,20.081],[77.47927,20.08443],[77.47668,20.08036],[77.47226,20.07798],[77.46433,20.06955],[77.45948,20.06936],[77.45261,20.07037],[77.44614,20.0704],[77.44488,20.0708],[77.444,20.0723],[77.44211,20.07352],[77.44015,20.07396],[77.43931,20.07314],[77.42296,20.07735],[77.42122,20.07867],[77.41837,20.07841],[77.41617,20.08037],[77.41425,20.08066],[77.41159,20.08259],[77.41069,20.08221],[77.4079,20.08281],[77.40779,20.08367],[77.40574,20.08298],[77.38857,20.08618],[77.38345,20.0865],[77.37656,20.09059],[77.36606,20.09822],[77.36484,20.09833],[77.36823,20.09407],[77.36916,20.08905],[77.36469,20.08233],[77.36073,20.07933],[77.3562,20.07726],[77.35376,20.07078],[77.35213,20.07042],[77.35324,20.0671],[77.35243,20.06432],[77.35366,20.0645],[77.35425,20.06328],[77.35366,20.06277],[77.36308,20.05622],[77.36838,20.05115],[77.36978,20.04886],[77.3726,20.04689],[77.36047,20.02616],[77.35789,20.02476],[77.35411,20.0202],[77.35545,20.01636],[77.35534,20.0141],[77.35388,20.0129],[77.34974,20.01372],[77.34924,20.01129],[77.34791,20.00984],[77.34295,20.00813],[77.34083,20.00841],[77.34068,20.00723],[77.34155,20.00574],[77.34101,20.00403],[77.34076,20.00449],[77.33964,20.00292],[77.33734,19.99703],[77.33721,19.99307],[77.3364,19.99042],[77.33721,19.97464],[77.33469,19.97348],[77.33169,19.97353],[77.33088,19.9749],[77.32464,19.97361],[77.32125,19.96511],[77.32194,19.95925],[77.31756,19.96245],[77.30381,19.96533],[77.30322,19.95327],[77.29907,19.94387],[77.29262,19.93976],[77.28779,19.93774],[77.2844,19.93708],[77.28486,19.93009],[77.28339,19.91637],[77.28355,19.9127],[77.27966,19.91776],[77.27379,19.91968],[77.27116,19.91958],[77.26909,19.91757],[77.26883,19.91006],[77.26957,19.90235],[77.26629,19.89764],[77.26366,19.8976],[77.25743,19.90154],[77.25581,19.90162],[77.25363,19.90011],[77.25013,19.89488],[77.24636,19.89395],[77.24525,19.89246],[77.24165,19.89173],[77.23908,19.88969],[77.23652,19.88943],[77.23551,19.89066],[77.23405,19.89476],[77.23392,19.8971],[77.24475,19.90416],[77.24562,19.9055],[77.24152,19.90979],[77.23891,19.91122],[77.23799,19.91268],[77.23678,19.92757],[77.23711,19.93233],[77.23822,19.93453],[77.23526,19.93867],[77.22537,19.93717],[77.222,19.93728],[77.21635,19.93884],[77.21073,19.938],[77.20703,19.9401],[77.20549,19.94211],[77.20375,19.94635],[77.20386,19.94858],[77.20648,19.95228],[77.20729,19.95526],[77.20835,19.96266],[77.20793,19.96623],[77.20839,19.96898],[77.20975,19.97019],[77.21293,19.97064],[77.21489,19.97332],[77.21381,19.97622],[77.21095,19.98005],[77.20391,19.9867],[77.20366,19.98963],[77.20294,19.99019],[77.19901,19.99126],[77.19442,19.98878],[77.19334,19.98571],[77.18008,19.98108],[77.17786,19.97976],[77.17579,19.97696],[77.17298,19.9676],[77.16948,19.96451],[77.16582,19.96412],[77.15409,19.96591],[77.14684,19.95996],[77.14176,19.9571],[77.13617,19.95268],[77.13519,19.94864],[77.13552,19.94393],[77.13361,19.94189],[77.12939,19.94133],[77.12503,19.94237],[77.12073,19.93991],[77.11794,19.93943],[77.11408,19.93995],[77.1124,19.93938],[77.10821,19.93608],[77.10617,19.93422],[77.10484,19.93194],[77.1023,19.93147],[77.09714,19.93409],[77.09365,19.9345],[77.093,19.93523],[77.0931,19.94371],[77.08391,19.9533],[77.08258,19.95554],[77.08467,19.964],[77.08174,19.96656],[77.0736,19.97001],[77.07079,19.9722],[77.06936,19.97567],[77.07042,19.98161],[77.06952,19.98244],[77.06372,19.98404],[77.06277,19.98521],[77.06247,19.9918],[77.06163,19.99389],[77.05529,19.99681],[77.04707,19.99722],[77.04206,19.99903],[77.03755,20.00473],[77.03669,20.00831],[77.03414,20.00933],[77.02549,20.00968],[77.02108,20.00385],[77.01972,20.00294],[77.01756,20.00194],[77.01245,20.0024],[77.00593,20.00689],[76.99495,20.01763],[76.99198,20.01683],[76.99211,20.01191],[76.99048,20.00569],[76.98906,20.00285],[76.98835,19.99807],[76.9724,19.99641],[76.96189,19.98728],[76.95551,19.98574],[76.94869,19.98572],[76.94378,19.98484],[76.94301,19.98327],[76.9373,19.98119],[76.93377,19.97886],[76.92679,19.97757],[76.92235,19.97587],[76.9205,19.97372],[76.91274,19.96928],[76.90046,19.96426],[76.89956,19.95273],[76.89835,19.9531],[76.89538,19.94913],[76.89392,19.94924],[76.89231,19.95177],[76.88899,19.9528],[76.87315,19.9543],[76.87268,19.95458],[76.87231,19.95828],[76.86736,19.95915],[76.85984,19.96154],[76.83728,19.96391],[76.8357,19.96259],[76.83296,19.95698],[76.83053,19.94735],[76.82136,19.9292],[76.81531,19.92987],[76.80529,19.92992],[76.79779,19.93148],[76.79724,19.93241],[76.79524,19.93297],[76.77768,19.93405],[76.77229,19.93578],[76.77138,19.93243],[76.77145,19.92481],[76.77069,19.91892],[76.7654,19.90441],[76.7614,19.90493],[76.75651,19.90807],[76.74715,19.91231],[76.74423,19.90417],[76.74255,19.90188],[76.74232,19.89858],[76.74366,19.89188],[76.74367,19.88558],[76.74027,19.87331],[76.72773,19.87131],[76.72132,19.86945],[76.70663,19.87202],[76.7059,19.87322],[76.69857,19.87543],[76.69295,19.874],[76.69305,19.87059],[76.68929,19.86383],[76.69195,19.85961],[76.68854,19.85834],[76.68493,19.85026],[76.6812,19.84699],[76.67892,19.84693],[76.67911,19.84744],[76.67428,19.84937],[76.66572,19.85104],[76.66166,19.85325],[76.65495,19.85748],[76.65453,19.86013],[76.64979,19.86367],[76.64713,19.867],[76.65263,19.87359],[76.65301,19.87881],[76.65879,19.8857],[76.65965,19.89234],[76.65439,19.90051],[76.64429,19.89942],[76.63324,19.89931],[76.63023,19.8948],[76.62855,19.89395],[76.6279,19.89278],[76.62644,19.89233],[76.62431,19.88954],[76.61362,19.89249],[76.61302,19.89328],[76.61098,19.89309],[76.61042,19.89627],[76.61065,19.89979],[76.61275,19.90171],[76.61365,19.90674],[76.61312,19.90716],[76.61301,19.90977],[76.61067,19.91813],[76.60806,19.92147],[76.60619,19.92247],[76.60567,19.92213],[76.60674,19.9248],[76.61023,19.92394],[76.62233,19.92307],[76.62839,19.92549],[76.63646,19.93368],[76.6369,19.93831],[76.63548,19.94361],[76.63565,19.95138],[76.63439,19.9536],[76.63451,19.95638],[76.63663,19.95946],[76.64145,19.96159],[76.64536,19.96489],[76.65906,19.96438],[76.66081,19.97659],[76.66072,19.97872],[76.65476,19.98128],[76.6495,19.98266],[76.6455,19.98466],[76.65161,19.99218],[76.65556,19.99932],[76.65836,20.00187],[76.65843,20.02182],[76.66126,20.03251],[76.6631,20.04756],[76.65561,20.04865],[76.63529,20.04962],[76.63522,20.0503],[76.63241,20.04971],[76.62783,20.05115],[76.62403,20.05125],[76.62632,20.063],[76.62942,20.07468],[76.63046,20.08221],[76.63249,20.08198],[76.63409,20.08068],[76.63251,20.07609],[76.63283,20.0744],[76.63546,20.0736],[76.63755,20.0717],[76.6462,20.06924],[76.64846,20.06956],[76.6494,20.08071],[76.6519,20.09139],[76.65825,20.09761],[76.66024,20.09722],[76.65785,20.10619],[76.65811,20.11345],[76.66274,20.11771],[76.66675,20.11942],[76.66893,20.12611],[76.68195,20.12296],[76.69211,20.12153],[76.69646,20.12168],[76.708,20.12273],[76.71632,20.12612],[76.7221,20.12719],[76.73218,20.12504],[76.74377,20.12833],[76.74945,20.12831],[76.75742,20.13111],[76.75875,20.13291],[76.76017,20.1395],[76.76058,20.14343],[76.75987,20.14584],[76.76069,20.14842],[76.76217,20.16133],[76.75933,20.16162],[76.75309,20.1643],[76.74829,20.16543],[76.75034,20.17753],[76.74932,20.18699],[76.74744,20.18736],[76.74687,20.1884],[76.74666,20.19309],[76.74518,20.19613],[76.74521,20.20221],[76.74678,20.20672],[76.75061,20.20701],[76.75054,20.20862],[76.75241,20.20887],[76.76828,20.20936],[76.77349,20.20784],[76.77295,20.206],[76.7847,20.20322],[76.78804,20.20464],[76.78922,20.20592],[76.79485,20.21829],[76.80152,20.221],[76.81093,20.21933],[76.81115,20.22216],[76.81262,20.22524],[76.81433,20.22806],[76.82131,20.23471],[76.82427,20.24197],[76.8247,20.24924],[76.82349,20.25588],[76.8208,20.26136],[76.82562,20.26823],[76.82608,20.26973],[76.82589,20.27143],[76.82011,20.27989],[76.82327,20.27994],[76.8247,20.28088],[76.8298,20.28142],[76.83231,20.28276],[76.83285,20.28445],[76.83541,20.28768],[76.83801,20.28908],[76.83824,20.29064],[76.83679,20.29428],[76.83776,20.29605],[76.84968,20.29797],[76.85025,20.29762],[76.85218,20.30021],[76.85825,20.29937],[76.86206,20.29673],[76.86584,20.29061],[76.86543,20.28507],[76.86584,20.28205],[76.8687,20.27786],[76.87284,20.27523],[76.88021,20.2797],[76.88043,20.2825],[76.88212,20.28496],[76.88035,20.28671],[76.87764,20.28804],[76.88081,20.29416],[76.89328,20.30413],[76.90883,20.31311],[76.90239,20.31319],[76.89501,20.31629],[76.89155,20.31702],[76.89259,20.3183],[76.89171,20.32078],[76.89265,20.32249],[76.89351,20.32221],[76.89622,20.32876],[76.89673,20.33443],[76.90478,20.34448],[76.90988,20.34713],[76.91445,20.3506],[76.91671,20.35135],[76.91947,20.35964],[76.92321,20.35899],[76.92466,20.35761],[76.92979,20.35582],[76.93058,20.35721],[76.93199,20.35704],[76.93159,20.35823],[76.93327,20.36677],[76.93617,20.37061],[76.94041,20.36899],[76.94308,20.36537],[76.94697,20.36472],[76.94908,20.36557],[76.95142,20.36491],[76.95331,20.36347],[76.95498,20.36393],[76.95707,20.36345],[76.95941,20.36561],[76.96466,20.36764],[76.96902,20.36778],[76.9726,20.36939],[76.97799,20.37035],[76.97799,20.37283],[76.97418,20.37624],[76.97357,20.37749],[76.97446,20.38037],[76.97668,20.38125],[76.98104,20.38009],[76.98162,20.38137],[76.98112,20.38778],[76.98147,20.38837],[76.98634,20.38916],[76.98935,20.39448],[76.99054,20.39467],[76.99442,20.3931],[76.99531,20.39355],[76.99576,20.39803],[76.99386,20.40161],[76.99176,20.4028],[76.99101,20.40434],[76.99136,20.40615],[76.99306,20.40708],[76.99358,20.40904],[76.99555,20.40907],[76.99766,20.41031],[77.00182,20.41136],[77.00197,20.41276],[77.00351,20.41475],[77.01448,20.41271],[77.01319,20.42122],[77.01457,20.42896],[77.01455,20.43044],[77.01368,20.43173],[77.01446,20.43434],[77.01832,20.43785],[77.02141,20.44319],[77.02239,20.44624],[77.02196,20.44761],[77.02231,20.44992],[77.02727,20.45039],[77.04479,20.44966],[77.05732,20.44705],[77.05902,20.44537],[77.05966,20.43944],[77.04982,20.42347],[77.04934,20.42181],[77.04711,20.41931],[77.04684,20.41585],[77.05095,20.40742],[77.04982,20.4018],[77.04556,20.3934],[77.04533,20.38655],[77.04819,20.38637],[77.06246,20.38136],[77.06829,20.38286],[77.06781,20.38339],[77.06873,20.38528],[77.07269,20.38543],[77.0733,20.38652],[77.07806,20.38616],[77.07972,20.3867],[77.08115,20.38895],[77.08119,20.39045],[77.0745,20.39361],[77.07314,20.40148],[77.07723,20.41565],[77.07857,20.42269],[77.07961,20.42386],[77.08522,20.42232],[77.08517,20.41936],[77.10294,20.41521],[77.10494,20.41097],[77.11324,20.41162],[77.11589,20.408],[77.12021,20.4111],[77.12111,20.40277],[77.12727,20.39901],[77.1304,20.39889],[77.13264,20.39521],[77.13191,20.3904],[77.13424,20.3903],[77.13549,20.39159],[77.13648,20.39141],[77.13778,20.38854],[77.13815,20.38514],[77.14206,20.38015],[77.14404,20.38053],[77.14559,20.38638],[77.15034,20.38996],[77.1521,20.39256],[77.15152,20.39914],[77.15983,20.3993],[77.16264,20.39858],[77.16948,20.39918],[77.17053,20.39962],[77.17065,20.40106],[77.17126,20.40118],[77.17433,20.40092],[77.17503,20.40004],[77.18041,20.39753],[77.18115,20.39747],[77.18163,20.39852],[77.18507,20.39841],[77.18953,20.40243],[77.19144,20.40229],[77.19509,20.40919],[77.19699,20.41518],[77.19724,20.42222],[77.19721,20.42376],[77.19218,20.42407],[77.19094,20.42364],[77.18864,20.42996],[77.18286,20.43173],[77.18233,20.43732],[77.18555,20.44738],[77.18983,20.4469],[77.1958,20.44914],[77.20168,20.44956],[77.20214,20.44856],[77.2064,20.448],[77.20955,20.44496],[77.21252,20.44789],[77.21597,20.44716],[77.22196,20.44819],[77.22517,20.44741],[77.22571,20.45566],[77.22747,20.46231],[77.22816,20.46907],[77.22957,20.47339],[77.23283,20.47291],[77.24022,20.47374],[77.24679,20.47237],[77.24572,20.46714],[77.24629,20.46421],[77.24571,20.46035],[77.24681,20.45974],[77.25513,20.45784],[77.2663,20.4586],[77.26716,20.44849],[77.27126,20.44159],[77.2713,20.43842],[77.27338,20.43267],[77.27433,20.43162],[77.27776,20.43059],[77.27727,20.42746],[77.27771,20.42363],[77.27934,20.42284],[77.28183,20.41893],[77.28456,20.41833],[77.28577,20.41919],[77.28909,20.41895],[77.29379,20.42071],[77.29604,20.42214],[77.29664,20.42498],[77.29558,20.42858],[77.29615,20.43944],[77.29803,20.44587],[77.30307,20.44611],[77.30729,20.44814],[77.30971,20.44793],[77.31111,20.44896],[77.31405,20.4497],[77.31383,20.45231],[77.31568,20.45209],[77.31808,20.45056],[77.32548,20.45032],[77.32461,20.45212],[77.32623,20.45872],[77.32549,20.46267],[77.32631,20.46481],[77.32983,20.46859],[77.33237,20.47011],[77.33321,20.47257],[77.34343,20.47164],[77.34375,20.47752],[77.34449,20.47814],[77.3437,20.4799],[77.34412,20.48054],[77.33923,20.48378],[77.32483,20.48703],[77.32714,20.49358],[77.32748,20.49797],[77.34037,20.4964],[77.35159,20.49726],[77.36231,20.49705],[77.36292,20.4975],[77.36805,20.49653],[77.36988,20.4957],[77.37001,20.49288],[77.36926,20.49267],[77.36927,20.49192],[77.3702,20.48762],[77.36793,20.48003],[77.37016,20.481],[77.38163,20.48315],[77.38321,20.48688],[77.38405,20.49552],[77.38724,20.49757],[77.38898,20.5017],[77.39567,20.52544],[77.38739,20.52564],[77.38647,20.52505],[77.38183,20.52453],[77.37373,20.52469],[77.36833,20.52549],[77.36708,20.51942],[77.36441,20.51819],[77.34865,20.52154],[77.33634,20.52578],[77.33714,20.53751],[77.34058,20.5446],[77.34122,20.54743],[77.33538,20.54865],[77.3381,20.57142],[77.33944,20.57526],[77.34985,20.56995],[77.35527,20.56837],[77.36208,20.56764],[77.36571,20.57775],[77.36643,20.58122],[77.36567,20.58338],[77.37633,20.58157],[77.38483,20.58185],[77.3936,20.58086],[77.39368,20.58019],[77.39568,20.57981],[77.39777,20.58433],[77.39944,20.58532],[77.4045,20.58691],[77.40926,20.58707],[77.40985,20.59447],[77.41303,20.59396],[77.41436,20.60203],[77.41421,20.60384],[77.41087,20.60692],[77.42411,20.61002],[77.43103,20.6123],[77.436,20.6122],[77.44248,20.61054],[77.45337,20.61078],[77.45977,20.60972],[77.46177,20.61021],[77.46192,20.61088],[77.46707,20.61091],[77.4661,20.6182],[77.45975,20.61924],[77.4593,20.62163],[77.45999,20.62404],[77.45811,20.62823],[77.4565,20.62823],[77.45424,20.62663],[77.45046,20.62966],[77.45176,20.63816],[77.44532,20.6393],[77.44382,20.64155],[77.4426,20.64229],[77.43856,20.64255],[77.43913,20.64972],[77.43842,20.65316],[77.43255,20.65754],[77.43033,20.66056],[77.43089,20.66226],[77.44058,20.6603],[77.45262,20.65686],[77.45382,20.66468],[77.45763,20.66474],[77.46136,20.66587],[77.46359,20.66019],[77.4691,20.65808],[77.46916,20.65691],[77.47859,20.65515],[77.48319,20.65708],[77.48468,20.65711],[77.48565,20.66225],[77.48377,20.66321],[77.48101,20.68205],[77.48397,20.68166],[77.49308,20.68289],[77.4939,20.68096],[77.50087,20.6749],[77.50127,20.67189],[77.50299,20.67163],[77.50399,20.66485],[77.51084,20.66441],[77.5153,20.67329],[77.51478,20.67596],[77.51313,20.67833],[77.51385,20.68169],[77.52226,20.6807],[77.5381,20.67757],[77.54324,20.67828],[77.54281,20.68456],[77.5411,20.688],[77.53956,20.69653],[77.52351,20.69731],[77.52624,20.70118],[77.5456,20.70262],[77.54974,20.7039],[77.56343,20.70105],[77.56528,20.70749],[77.57304,20.70537],[77.57458,20.71408],[77.57594,20.71835],[77.5774,20.71917],[77.57789,20.72692]],[[77.59331,20.45877],[77.60392,20.45692],[77.6045,20.46181],[77.6035,20.46416],[77.60454,20.4668],[77.59331,20.46817],[77.59031,20.46753],[77.58786,20.46427],[77.58795,20.46277],[77.58946,20.46188],[77.58896,20.46033],[77.59331,20.45877]]],[[[77.63391,20.75572],[77.63147,20.73807],[77.62896,20.73855],[77.62795,20.7375],[77.62556,20.73726],[77.62454,20.7324],[77.6234,20.73005],[77.61213,20.73075],[77.61287,20.73648],[77.61464,20.73657],[77.61566,20.74306],[77.61805,20.75033],[77.61837,20.75321],[77.61924,20.75306],[77.61982,20.75703],[77.63391,20.75572]]]]}}]}