{"type":"FeatureCollection","features":[{"type":"Feature","properties":{"taluka":"Karanja","district":"Washim","villages":168},"geometry":{"type":"MultiPolygon","coordinates":[[[[77.32453,20.45018],[77.32529,20.4504],[77.32461,20.45212],[77.32596,20.4569],[77.3263,20.45972],[77.32549,20.46268],[77.32632,20.46482],[77.32983,20.46859],[77.33237,20.47015],[77.33321,20.47257],[77.33969,20.47202],[77.34065,20.47161],[77.34318,20.47164],[77.34345,20.47188],[77.34375,20.47752],[77.34442,20.47806],[77.3437,20.4799],[77.344,20.48061],[77.34255,20.48184],[77.33921,20.48378],[77.32483,20.48703],[77.32714,20.49359],[77.32748,20.49797],[77.34037,20.4964],[77.3516,20.49726],[77.36221,20.49705],[77.36292,20.4975],[77.36805,20.49653],[77.36988,20.4957],[77.37001,20.49288],[77.36935,20.49266],[77.36928,20.49187],[77.3702,20.48762],[77.36871,20.48362],[77.36811,20.48023],[77.36901,20.48029],[77.37016,20.481],[77.37409,20.48158],[77.3758,20.48227],[77.38083,20.48269],[77.38166,20.48321],[77.38321,20.48688],[77.38405,20.49552],[77.38723,20.49756],[77.38897,20.50169],[77.38963,20.5054],[77.39196,20.51236],[77.39315,20.51738],[77.39556,20.52512],[77.39527,20.52546],[77.38921,20.52537],[77.38744,20.52563],[77.38647,20.52505],[77.38338,20.52464],[77.37549,20.52482],[77.37518,20.52461],[77.36851,20.52546],[77.36708,20.51942],[77.36572,20.51905],[77.36441,20.51819],[77.35997,20.51948],[77.34866,20.52154],[77.34482,20.52308],[77.33634,20.52578],[77.33714,20.53751],[77.33774,20.53922],[77.33977,20.54264],[77.34058,20.5446],[77.34117,20.54721],[77.34093,20.54751],[77.33538,20.54865],[77.33571,20.55388],[77.33684,20.56054],[77.3381,20.57141],[77.33944,20.57526],[77.34111,20.57469],[77.34178,20.57374],[77.34517,20.57252],[77.34987,20.56994],[77.35529,20.56837],[77.36192,20.56768],[77.36308,20.57139],[77.36571,20.57777],[77.36642,20.58119],[77.36567,20.58338],[77.3732,20.58189],[77.37631,20.58157],[77.38482,20.58185],[77.39093,20.58086],[77.3936,20.58086],[77.39381,20.58018],[77.39555,20.57985],[77.3975,20.58331],[77.39777,20.58433],[77.39944,20.58532],[77.40451,20.58691],[77.40919,20.58717],[77.40985,20.59447],[77.41304,20.59417],[77.4132,20.59523],[77.41367,20.59589],[77.41373,20.59922],[77.41436,20.60206],[77.41417,20.60384],[77.41087,20.60692],[77.41806,20.60885],[77.42412,20.61002],[77.43104,20.6123],[77.436,20.6122],[77.43934,20.61162],[77.44245,20.61054],[77.44848,20.61095],[77.45337,20.61078],[77.45548,20.61064],[77.45963,20.60976],[77.46119,20.60993],[77.46175,20.61024],[77.46193,20.61088],[77.46424,20.6112],[77.46702,20.61111],[77.467,20.61387],[77.46606,20.61813],[77.46249,20.61855],[77.45975,20.61924],[77.45988,20.62011],[77.4593,20.62163],[77.45995,20.62405],[77.45813,20.62816],[77.45649,20.62821],[77.45424,20.62663],[77.45278,20.62744],[77.45046,20.62966],[77.4507,20.63342],[77.45162,20.638],[77.44532,20.6393],[77.44382,20.64153],[77.44258,20.64229],[77.4402,20.64271],[77.43856,20.64255],[77.43866,20.64803],[77.43904,20.64972],[77.43874,20.65023],[77.43842,20.65316],[77.43741,20.65404],[77.43469,20.65546],[77.43255,20.65754],[77.43033,20.66056],[77.43089,20.66226],[77.44075,20.66026],[77.44842,20.65778],[77.45239,20.65691],[77.45264,20.65715],[77.45295,20.66074],[77.45382,20.66468],[77.45764,20.66474],[77.45969,20.66515],[77.46136,20.66587],[77.46238,20.66397],[77.46374,20.66007],[77.4691,20.65808],[77.46933,20.65688],[77.47642,20.65519],[77.47859,20.65516],[77.48319,20.65708],[77.48463,20.65713],[77.48556,20.66208],[77.48377,20.66321],[77.48313,20.66883],[77.48193,20.67369],[77.48101,20.68205],[77.484,20.68166],[77.49308,20.68289],[77.49393,20.68093],[77.50087,20.6749],[77.50132,20.67191],[77.50299,20.67163],[77.50361,20.66904],[77.50403,20.66497],[77.51064,20.66442],[77.51529,20.67329],[77.51478,20.67595],[77.51313,20.67833],[77.51344,20.67857],[77.51385,20.68169],[77.51704,20.68152],[77.52226,20.6807],[77.53077,20.67872],[77.53465,20.67835],[77.53809,20.67757],[77.54304,20.67825],[77.54321,20.68208],[77.54281,20.68454],[77.54214,20.68642],[77.5411,20.688],[77.53952,20.69647],[77.53368,20.69713],[77.52351,20.69731],[77.5242,20.69847],[77.52657,20.70146],[77.53624,20.70176],[77.541,20.70253],[77.5456,20.70262],[77.54821,20.70378],[77.54917,20.70389],[77.56057,20.70132],[77.56328,20.70108],[77.56528,20.70749],[77.57296,20.70548],[77.57398,20.71151],[77.57594,20.71834],[77.5774,20.71918],[77.57791,20.72223],[77.57789,20.72692],[77.58738,20.72675],[77.59077,20.72641],[77.59257,20.72377],[77.5936,20.72287],[77.59832,20.72002],[77.59824,20.71862],[77.59847,20.71834],[77.60853,20.71751],[77.61274,20.71775],[77.62131,20.71666],[77.62424,20.7162],[77.62764,20.71519],[77.63329,20.71344],[77.63402,20.71288],[77.63513,20.71137],[77.63315,20.71039],[77.63211,20.70932],[77.63183,20.70843],[77.63201,20.70593],[77.6314,20.70147],[77.63328,20.69866],[77.63478,20.69788],[77.63793,20.69438],[77.63699,20.68587],[77.63236,20.67167],[77.6362,20.67005],[77.63558,20.66735],[77.63546,20.66228],[77.63492,20.65847],[77.63522,20.65828],[77.64142,20.65895],[77.6451,20.6597],[77.6476,20.66154],[77.65399,20.66187],[77.65437,20.6616],[77.65485,20.65936],[77.65047,20.65305],[77.64845,20.64877],[77.651,20.64792],[77.65972,20.64619],[77.6592,20.64338],[77.65864,20.63647],[77.65741,20.63499],[77.65731,20.63447],[77.65575,20.63402],[77.6541,20.63232],[77.6537,20.62663],[77.65322,20.62641],[77.65288,20.62542],[77.65021,20.62544],[77.64808,20.62194],[77.64716,20.61623],[77.6469,20.61075],[77.64639,20.60849],[77.64709,20.60466],[77.64484,20.60473],[77.64339,20.59868],[77.63933,20.58905],[77.63822,20.58559],[77.63559,20.5819],[77.63439,20.5787],[77.63248,20.57885],[77.63157,20.57474],[77.62844,20.56806],[77.62814,20.56669],[77.62907,20.56622],[77.63399,20.56549],[77.64163,20.56501],[77.64624,20.56402],[77.6504,20.56398],[77.64925,20.55387],[77.64696,20.54524],[77.64374,20.53633],[77.64298,20.53293],[77.64312,20.53174],[77.64551,20.53195],[77.64841,20.53146],[77.65363,20.53129],[77.65573,20.53375],[77.66879,20.53998],[77.67821,20.53788],[77.68378,20.53577],[77.69071,20.53401],[77.69018,20.52712],[77.68965,20.52413],[77.68575,20.51939],[77.68168,20.52041],[77.67329,20.51916],[77.66764,20.51743],[77.66704,20.517],[77.66611,20.51547],[77.6649,20.51251],[77.66394,20.50845],[77.66427,20.50601],[77.66216,20.50018],[77.66104,20.50053],[77.65788,20.50018],[77.65666,20.4988],[77.65567,20.49872],[77.65497,20.49773],[77.65336,20.4977],[77.65302,20.49532],[77.65576,20.49488],[77.65456,20.48684],[77.65403,20.48064],[77.65054,20.47616],[77.64876,20.47325],[77.64838,20.47191],[77.64892,20.4677],[77.64944,20.46609],[77.64958,20.46203],[77.64925,20.45965],[77.64832,20.45805],[77.64603,20.45619],[77.64529,20.45521],[77.64286,20.45034],[77.6348,20.45252],[77.63275,20.45493],[77.62969,20.45553],[77.62705,20.45785],[77.62521,20.45862],[77.62185,20.45866],[77.62027,20.45952],[77.61813,20.4598],[77.61635,20.46068],[77.61356,20.46088],[77.61237,20.45564],[77.60778,20.45553],[77.60554,20.45581],[77.60353,20.45131],[77.59781,20.4478],[77.60155,20.4462],[77.60377,20.44184],[77.604,20.43695],[77.6037,20.43562],[77.60273,20.43591],[77.59917,20.43352],[77.59779,20.43191],[77.59308,20.42883],[77.59054,20.42917],[77.59024,20.42892],[77.59043,20.42713],[77.59232,20.42127],[77.59509,20.41962],[77.59608,20.41736],[77.59576,20.41234],[77.59389,20.41291],[77.58942,20.41599],[77.58454,20.41741],[77.58393,20.41725],[77.58294,20.41652],[77.58144,20.41528],[77.58084,20.41371],[77.5813,20.41111],[77.58122,20.40956],[77.58093,20.40777],[77.58047,20.40688],[77.57659,20.40222],[77.57339,20.40036],[77.57123,20.4],[77.56851,20.40112],[77.56531,20.40616],[77.56424,20.40944],[77.56435,20.4113],[77.56376,20.41354],[77.56319,20.4144],[77.56234,20.41473],[77.56114,20.41463],[77.5596,20.41395],[77.55765,20.41255],[77.55318,20.40762],[77.5514,20.40798],[77.54726,20.41008],[77.54539,20.41383],[77.54357,20.41562],[77.53257,20.41993],[77.5286,20.41945],[77.52826,20.4191],[77.52268,20.41915],[77.51469,20.41863],[77.5131,20.41805],[77.51192,20.41703],[77.50976,20.41643],[77.50756,20.41624],[77.50494,20.41508],[77.50256,20.4123],[77.50254,20.40774],[77.50141,20.40176],[77.50059,20.4009],[77.49699,20.40054],[77.49441,20.39953],[77.49354,20.39817],[77.49173,20.39732],[77.48864,20.3943],[77.48789,20.39344],[77.48731,20.39177],[77.48483,20.39272],[77.47717,20.39374],[77.47689,20.39351],[77.47656,20.39157],[77.47512,20.39162],[77.47261,20.3906],[77.47331,20.38231],[77.47372,20.38077],[77.47679,20.38079],[77.4805,20.38023],[77.48127,20.37802],[77.48221,20.3776],[77.48299,20.373],[77.48363,20.37158],[77.48168,20.37193],[77.47599,20.37431],[77.47368,20.37493],[77.4717,20.37346],[77.47047,20.37411],[77.46955,20.37393],[77.46873,20.37466],[77.46793,20.37464],[77.46751,20.37408],[77.46352,20.37394],[77.46189,20.37354],[77.46241,20.36984],[77.46278,20.36851],[77.46318,20.36815],[77.45604,20.3678],[77.45592,20.36871],[77.45629,20.36974],[77.45475,20.37055],[77.45509,20.37248],[77.44925,20.37422],[77.44418,20.37517],[77.44343,20.37387],[77.4428,20.37128],[77.44268,20.36839],[77.44207,20.36807],[77.44225,20.36602],[77.44195,20.36447],[77.43728,20.36501],[77.43634,20.37542],[77.43581,20.37825],[77.43622,20.37869],[77.43686,20.38468],[77.43734,20.38616],[77.43683,20.38663],[77.43755,20.38833],[77.43817,20.39116],[77.44059,20.39526],[77.44854,20.40069],[77.44911,20.40076],[77.45077,20.40025],[77.45868,20.39636],[77.46118,20.39582],[77.46281,20.39612],[77.46709,20.398],[77.46715,20.39851],[77.45914,20.40104],[77.45711,20.40116],[77.45432,20.40184],[77.44445,20.40556],[77.4422,20.40346],[77.43413,20.40617],[77.43392,20.40661],[77.42343,20.4081],[77.41316,20.41202],[77.41311,20.41419],[77.40506,20.41529],[77.40509,20.41611],[77.40232,20.41673],[77.40164,20.41721],[77.40129,20.42142],[77.40146,20.42228],[77.40622,20.42526],[77.40774,20.42699],[77.40837,20.42832],[77.40703,20.43092],[77.40282,20.43609],[77.40139,20.43734],[77.40034,20.43737],[77.3983,20.43485],[77.39638,20.43321],[77.3934,20.42945],[77.39395,20.4349],[77.39318,20.43817],[77.38567,20.43874],[77.37711,20.43541],[77.37661,20.43251],[77.37833,20.42455],[77.37652,20.41916],[77.37404,20.41746],[77.37017,20.41606],[77.36473,20.41525],[77.35784,20.41643],[77.35526,20.41743],[77.35273,20.41795],[77.35282,20.42144],[77.34998,20.42184],[77.35039,20.42488],[77.34921,20.42514],[77.3455,20.42503],[77.34372,20.42923],[77.33755,20.42802],[77.33426,20.42834],[77.32831,20.43009],[77.32542,20.43157],[77.32517,20.43647],[77.32457,20.43828],[77.32288,20.44102],[77.32245,20.44269],[77.32215,20.44537],[77.32237,20.44711],[77.31976,20.44965],[77.3195,20.45038],[77.32453,20.45018]],[[77.58805,20.46273],[77.58946,20.46188],[77.58916,20.46027],[77.59471,20.45826],[77.60373,20.45696],[77.60428,20.45757],[77.60441,20.4627],[77.6035,20.46416],[77.60406,20.46473],[77.60445,20.46649],[77.60425,20.46679],[77.60123,20.46689],[77.59335,20.46816],[77.59188,20.46803],[77.59032,20.46752],[77.58918,20.46618],[77.58791,20.4643],[77.58805,20.46273]]],[[[77.61287,20.73648],[77.61466,20.73675],[77.61567,20.7431],[77.61804,20.75032],[77.61837,20.75321],[77.61929,20.75332],[77.61982,20.75703],[77.63391,20.75572],[77.63336,20.74949],[77.63267,20.74801],[77.63159,20.74135],[77.63147,20.73807],[77.62909,20.73851],[77.62795,20.7375],[77.6256,20.7372],[77.62454,20.73241],[77.6234,20.73005],[77.61213,20.73075],[77.61287,20.73648]]]]}},{"type":"Feature","properties":{"taluka":"Malegaon","district":"Washim","villages":122},"geometry":{"type":"Polygon","coordinates":[[[76.81115,20.22216],[76.81262,20.22525],[76.81433,20.22806],[76.81825,20.23143],[76.8213,20.2347],[76.82427,20.24198],[76.82469,20.24927],[76.82347,20.25592],[76.8208,20.26136],[76.82561,20.26822],[76.82606,20.26976],[76.82581,20.27155],[76.82011,20.27989],[76.82324,20.27995],[76.8247,20.28088],[76.82748,20.2809],[76.8285,20.28142],[76.82978,20.28143],[76.83227,20.28275],[76.83285,20.28445],[76.83541,20.28768],[76.83802,20.28917],[76.83822,20.29067],[76.83679,20.29428],[76.83776,20.29605],[76.84967,20.29797],[76.85026,20.29783],[76.85218,20.30021],[76.85525,20.2995],[76.85825,20.29937],[76.86206,20.29673],[76.86584,20.29061],[76.86543,20.28507],[76.86584,20.28209],[76.86874,20.27784],[76.87292,20.2753],[76.88018,20.2797],[76.88043,20.2825],[76.88202,20.28501],[76.88033,20.28672],[76.87764,20.28804],[76.8793,20.29056],[76.88081,20.29416],[76.89327,20.30412],[76.90834,20.3129],[76.90824,20.31324],[76.90771,20.31341],[76.90239,20.31319],[76.89503,20.31628],[76.89339,20.31638],[76.89155,20.31702],[76.89256,20.31835],[76.89171,20.32078],[76.89265,20.32249],[76.8936,20.32245],[76.89621,20.32874],[76.89673,20.33443],[76.90101,20.33914],[76.90478,20.34448],[76.90979,20.34709],[76.91013,20.34762],[76.91445,20.3506],[76.91663,20.35136],[76.91947,20.35964],[76.92322,20.35899],[76.92416,20.3586],[76.92464,20.35762],[76.92959,20.35588],[76.93058,20.35721],[76.93174,20.35716],[76.93159,20.35823],[76.93327,20.36677],[76.93462,20.36801],[76.93617,20.37061],[76.94041,20.36899],[76.94311,20.36539],[76.94553,20.36523],[76.94699,20.36474],[76.94908,20.36557],[76.95142,20.36491],[76.95336,20.3635],[76.95499,20.36393],[76.95702,20.3635],[76.95941,20.36561],[76.96128,20.36599],[76.96465,20.36764],[76.96596,20.36793],[76.96905,20.36779],[76.9726,20.36939],[76.97737,20.37],[76.97794,20.37033],[76.97822,20.37113],[76.97799,20.37283],[76.97418,20.37624],[76.97357,20.37749],[76.97364,20.37854],[76.97446,20.38037],[76.97668,20.38125],[76.98114,20.38022],[76.98162,20.38142],[76.98092,20.38624],[76.98112,20.38779],[76.98148,20.38837],[76.98535,20.38865],[76.98634,20.38916],[76.98733,20.39064],[76.98843,20.39351],[76.98935,20.39448],[76.99054,20.39467],[76.99434,20.39312],[76.99533,20.39364],[76.99598,20.39647],[76.99575,20.39803],[76.99386,20.40159],[76.99176,20.4028],[76.99101,20.40434],[76.99101,20.4054],[76.99136,20.40615],[76.99309,20.40713],[76.99358,20.40904],[76.99552,20.40907],[76.99766,20.41031],[77.00169,20.41128],[77.00197,20.41276],[77.00351,20.41475],[77.00756,20.41369],[77.0144,20.41291],[77.01319,20.42122],[77.01457,20.42896],[77.01454,20.43047],[77.01368,20.43173],[77.01446,20.43434],[77.01839,20.438],[77.01927,20.4402],[77.02035,20.44124],[77.02142,20.4432],[77.02238,20.44619],[77.02196,20.44761],[77.02231,20.44992],[77.02727,20.45039],[77.04478,20.44966],[77.05732,20.44705],[77.05902,20.44537],[77.05961,20.443],[77.05966,20.43944],[77.04984,20.42349],[77.04934,20.42181],[77.04711,20.41926],[77.04686,20.41581],[77.05095,20.40742],[77.04982,20.40181],[77.04921,20.40021],[77.04807,20.39866],[77.04557,20.39341],[77.04549,20.38657],[77.04819,20.38637],[77.05015,20.38535],[77.05206,20.3849],[77.05545,20.38347],[77.05906,20.3827],[77.06248,20.38138],[77.06783,20.38286],[77.06807,20.38468],[77.06873,20.38528],[77.07263,20.38546],[77.0733,20.38652],[77.07609,20.38658],[77.07806,20.38617],[77.08029,20.387],[77.08108,20.38881],[77.08114,20.3904],[77.0745,20.39361],[77.07335,20.39879],[77.07314,20.40148],[77.07723,20.41566],[77.07857,20.42269],[77.07961,20.42386],[77.08521,20.42232],[77.08537,20.41931],[77.09972,20.4156],[77.10294,20.41521],[77.10392,20.4138],[77.10505,20.411],[77.11324,20.41162],[77.11597,20.40812],[77.12021,20.4111],[77.12116,20.40276],[77.12723,20.39903],[77.1304,20.39889],[77.13264,20.39521],[77.13201,20.3905],[77.13419,20.3903],[77.13549,20.39159],[77.13648,20.39141],[77.13778,20.38854],[77.13816,20.38514],[77.14044,20.38179],[77.1421,20.38016],[77.1435,20.38012],[77.14399,20.38048],[77.14504,20.37896],[77.14501,20.37824],[77.14547,20.37734],[77.15337,20.36989],[77.15453,20.36812],[77.1545,20.36699],[77.15554,20.36622],[77.15533,20.36177],[77.15803,20.36112],[77.16106,20.36125],[77.16402,20.36026],[77.16783,20.36005],[77.17425,20.35859],[77.18102,20.35788],[77.18109,20.35449],[77.18044,20.35124],[77.18358,20.35084],[77.18332,20.3491],[77.1845,20.34867],[77.18612,20.34679],[77.18927,20.34617],[77.19002,20.34557],[77.19408,20.3448],[77.1991,20.34439],[77.19908,20.3423],[77.19826,20.34093],[77.19826,20.33847],[77.20103,20.3381],[77.20629,20.33665],[77.20957,20.33497],[77.21483,20.33412],[77.21711,20.33512],[77.21846,20.33489],[77.2196,20.3342],[77.21793,20.32919],[77.21744,20.32542],[77.21836,20.31686],[77.21808,20.31092],[77.21846,20.30919],[77.21928,20.30747],[77.22133,20.30547],[77.21557,20.29355],[77.21503,20.28859],[77.21416,20.28678],[77.21203,20.28808],[77.21019,20.28868],[77.20403,20.28942],[77.20037,20.29138],[77.1998,20.29107],[77.19953,20.28983],[77.19867,20.28863],[77.1963,20.29002],[77.19412,20.29016],[77.18819,20.2881],[77.18568,20.28586],[77.18569,20.28086],[77.18593,20.28008],[77.18708,20.27899],[77.18743,20.27547],[77.19019,20.26963],[77.19162,20.26162],[77.18765,20.26115],[77.18248,20.26138],[77.17521,20.26052],[77.17455,20.2623],[77.17231,20.26391],[77.17223,20.26669],[77.17153,20.267],[77.17062,20.26901],[77.1587,20.27242],[77.15444,20.27313],[77.14932,20.27343],[77.14824,20.27398],[77.14085,20.27519],[77.13768,20.2763],[77.13648,20.27431],[77.13175,20.27085],[77.13106,20.26799],[77.13049,20.26337],[77.13098,20.25634],[77.13253,20.25107],[77.1323,20.24963],[77.13705,20.24898],[77.13866,20.25143],[77.13946,20.25181],[77.14309,20.25179],[77.15104,20.2498],[77.15539,20.24647],[77.15519,20.24452],[77.1555,20.23639],[77.1542,20.23479],[77.15322,20.23428],[77.15196,20.23038],[77.15031,20.23035],[77.14966,20.22842],[77.14648,20.22776],[77.1422,20.22498],[77.14281,20.22012],[77.14252,20.21988],[77.14249,20.21824],[77.14376,20.21668],[77.14392,20.21231],[77.14262,20.20586],[77.14229,20.19998],[77.14047,20.19935],[77.13842,20.19724],[77.13427,20.19435],[77.12958,20.1937],[77.12466,20.19129],[77.12389,20.18679],[77.12326,20.18661],[77.12018,20.18922],[77.11998,20.18985],[77.11842,20.19128],[77.11557,20.19314],[77.11058,20.19506],[77.10269,20.19627],[77.10259,20.1977],[77.10314,20.19873],[77.10313,20.20036],[77.10286,20.20062],[77.10082,20.20022],[77.09692,20.19678],[77.09596,20.19555],[77.09354,20.19388],[77.08304,20.18927],[77.08133,20.18982],[77.06511,20.19214],[77.05891,20.18923],[77.05452,20.18922],[77.05384,20.17716],[77.05359,20.16538],[77.05425,20.16071],[77.0558,20.1604],[77.05565,20.15834],[77.05335,20.15822],[77.0497,20.15749],[77.04704,20.15485],[77.045,20.15442],[77.0438,20.15455],[77.04263,20.15184],[77.04365,20.1511],[77.04541,20.15052],[77.04864,20.14841],[77.05109,20.14765],[77.05028,20.14392],[77.05082,20.13953],[77.05063,20.1339],[77.04991,20.13154],[77.04879,20.12951],[77.05158,20.1277],[77.04849,20.12468],[77.047,20.12562],[77.04658,20.12675],[77.04468,20.12866],[77.0443,20.12867],[77.04332,20.12601],[77.04191,20.1196],[77.03966,20.12036],[77.03666,20.12076],[77.03441,20.12143],[77.02889,20.12355],[77.02395,20.12459],[77.01917,20.12513],[77.01715,20.12088],[77.0138,20.11523],[77.01255,20.11163],[77.01255,20.10811],[77.01007,20.10213],[77.00981,20.10077],[77.00992,20.09956],[77.0112,20.09768],[77.01275,20.09401],[77.01313,20.09185],[77.01198,20.08447],[77.01394,20.08385],[77.01092,20.07397],[77.00638,20.07124],[77.00506,20.07012],[77.00404,20.06876],[77.00375,20.06687],[76.99734,20.06775],[76.99213,20.0694],[76.9918,20.07001],[76.98983,20.07068],[76.9798,20.07184],[76.9799,20.07311],[76.98317,20.07617],[76.98389,20.07805],[76.98398,20.08133],[76.98369,20.08239],[76.98391,20.0827],[76.9834,20.08433],[76.9831,20.0881],[76.98285,20.08834],[76.97702,20.08847],[76.97198,20.08798],[76.9648,20.08842],[76.96212,20.08073],[76.95569,20.08115],[76.95392,20.08203],[76.95115,20.08271],[76.94994,20.0822],[76.9483,20.08202],[76.94465,20.08231],[76.9423,20.08004],[76.93738,20.07678],[76.93735,20.07794],[76.93768,20.07824],[76.93788,20.07995],[76.93754,20.08127],[76.93778,20.08225],[76.93754,20.0839],[76.93688,20.08545],[76.93686,20.09013],[76.93843,20.09234],[76.93962,20.09587],[76.94031,20.0968],[76.94059,20.09822],[76.93591,20.09891],[76.9323,20.1002],[76.92801,20.10255],[76.92599,20.10738],[76.92428,20.10937],[76.92405,20.1105],[76.9232,20.11156],[76.91973,20.1121],[76.91943,20.11167],[76.91843,20.11188],[76.91715,20.11076],[76.91532,20.1108],[76.91354,20.10719],[76.9118,20.10482],[76.90973,20.10526],[76.90644,20.10543],[76.9032,20.10658],[76.8994,20.1087],[76.89588,20.11016],[76.89232,20.11343],[76.89149,20.11597],[76.88451,20.11942],[76.87892,20.12025],[76.86854,20.12047],[76.86272,20.12006],[76.85963,20.11937],[76.85838,20.1219],[76.85531,20.13082],[76.85691,20.13685],[76.85162,20.13712],[76.85208,20.14587],[76.85148,20.1479],[76.84981,20.1484],[76.84787,20.15601],[76.85215,20.15715],[76.853,20.15835],[76.85414,20.15898],[76.85429,20.16036],[76.85647,20.16097],[76.85906,20.16051],[76.8592,20.15886],[76.86139,20.15894],[76.86259,20.15728],[76.86671,20.15424],[76.86703,20.15264],[76.86859,20.15272],[76.86886,20.15322],[76.87305,20.15454],[76.87316,20.15509],[76.8744,20.15573],[76.8762,20.15727],[76.88028,20.15906],[76.8799,20.15991],[76.87997,20.16389],[76.88037,20.16666],[76.87964,20.16972],[76.88033,20.17298],[76.87543,20.17512],[76.87354,20.17849],[76.87261,20.18178],[76.86932,20.18417],[76.86925,20.18556],[76.86569,20.18635],[76.86052,20.18991],[76.8595,20.19017],[76.85914,20.19383],[76.85807,20.19742],[76.8539,20.20137],[76.8534,20.20213],[76.8535,20.2028],[76.85129,20.20558],[76.84958,20.20695],[76.84748,20.20801],[76.84762,20.20901],[76.84351,20.21102],[76.84291,20.211],[76.84274,20.21026],[76.84182,20.2103],[76.8387,20.21111],[76.8384,20.21146],[76.83271,20.21192],[76.82642,20.21347],[76.82476,20.21562],[76.82271,20.21659],[76.81936,20.21769],[76.8127,20.21851],[76.81093,20.21933],[76.81115,20.22216]]]}},{"type":"Feature","properties":{"taluka":"Mangrulpir","district":"Washim","villages":136},"geometry":{"type":"MultiPolygon","coordinates":[[[[77.14559,20.38638],[77.14629,20.38726],[77.14886,20.38862],[77.15033,20.38995],[77.15129,20.39097],[77.15209,20.39255],[77.15232,20.39414],[77.15123,20.39809],[77.15152,20.39914],[77.15982,20.3993],[77.16267,20.39859],[77.16943,20.39918],[77.17052,20.39965],[77.1708,20.40042],[77.17065,20.40106],[77.17127,20.40118],[77.17433,20.40092],[77.17509,20.40001],[77.181,20.39749],[77.18163,20.39852],[77.18509,20.39844],[77.18953,20.40243],[77.19148,20.4024],[77.19375,20.40716],[77.19509,20.4092],[77.19698,20.41516],[77.19719,20.42351],[77.19693,20.42376],[77.19221,20.42406],[77.19094,20.42364],[77.18863,20.42992],[77.18286,20.43173],[77.18233,20.43733],[77.183,20.44013],[77.18555,20.44738],[77.18579,20.44756],[77.18984,20.44691],[77.1958,20.44914],[77.20168,20.44956],[77.20222,20.44861],[77.20477,20.44861],[77.2064,20.448],[77.20953,20.44511],[77.21124,20.44709],[77.21252,20.44789],[77.21597,20.44717],[77.22172,20.4482],[77.22507,20.4475],[77.22542,20.44904],[77.22571,20.45565],[77.22746,20.4623],[77.22744,20.46485],[77.22816,20.46907],[77.22957,20.47339],[77.23283,20.47291],[77.24022,20.47374],[77.24679,20.47237],[77.24573,20.46717],[77.24629,20.46421],[77.24571,20.46053],[77.24683,20.45973],[77.25051,20.45851],[77.25513,20.45785],[77.2562,20.45804],[77.25862,20.45778],[77.2663,20.4586],[77.26646,20.45503],[77.26734,20.45026],[77.26718,20.44846],[77.26978,20.44487],[77.27126,20.4416],[77.2713,20.43847],[77.27241,20.43495],[77.27338,20.43269],[77.27415,20.43172],[77.27776,20.43059],[77.27727,20.42748],[77.27776,20.42373],[77.27934,20.42284],[77.28034,20.4214],[77.28076,20.42004],[77.28195,20.41891],[77.28449,20.41835],[77.28577,20.41919],[77.2891,20.41896],[77.29378,20.42073],[77.29595,20.42209],[77.29663,20.42512],[77.29558,20.42858],[77.29615,20.43943],[77.29803,20.44587],[77.30305,20.44612],[77.30729,20.44814],[77.30975,20.44797],[77.31111,20.44896],[77.31396,20.44973],[77.31384,20.45231],[77.31568,20.45209],[77.31686,20.451],[77.3195,20.45038],[77.31979,20.44962],[77.32241,20.44712],[77.32215,20.44537],[77.32245,20.44269],[77.32289,20.44101],[77.32458,20.43827],[77.32517,20.43647],[77.32551,20.43152],[77.32834,20.43008],[77.33512,20.42823],[77.33831,20.4281],[77.34378,20.4293],[77.34558,20.42509],[77.35049,20.42496],[77.35003,20.42195],[77.35289,20.42154],[77.35293,20.41792],[77.35527,20.41743],[77.35785,20.41643],[77.36487,20.41528],[77.37017,20.41606],[77.374,20.41744],[77.3765,20.41913],[77.37833,20.42457],[77.37657,20.43268],[77.37703,20.4354],[77.38173,20.43701],[77.38565,20.43875],[77.39334,20.43817],[77.39359,20.43612],[77.39392,20.43572],[77.39349,20.43037],[77.39382,20.43008],[77.40043,20.43748],[77.40147,20.43733],[77.40282,20.4361],[77.40705,20.43091],[77.40842,20.42829],[77.40774,20.42699],[77.40621,20.42525],[77.40146,20.42223],[77.40165,20.41732],[77.4023,20.41675],[77.40536,20.41606],[77.40517,20.4155],[77.40541,20.41524],[77.41331,20.41418],[77.41332,20.41197],[77.41819,20.41036],[77.41831,20.41004],[77.41949,20.40952],[77.42194,20.40886],[77.42345,20.40809],[77.43418,20.40657],[77.43434,20.4061],[77.44208,20.40352],[77.44434,20.40564],[77.45433,20.40183],[77.45687,20.40122],[77.45909,20.40106],[77.46775,20.39829],[77.46282,20.39612],[77.46121,20.39581],[77.45868,20.39636],[77.45078,20.40024],[77.44906,20.40075],[77.44849,20.40065],[77.44059,20.39527],[77.43818,20.39117],[77.43692,20.38689],[77.43742,20.38629],[77.43686,20.38468],[77.43623,20.3786],[77.43584,20.37816],[77.43726,20.36522],[77.43752,20.36498],[77.44298,20.36438],[77.44401,20.36478],[77.44737,20.36515],[77.45203,20.36318],[77.45448,20.36166],[77.45389,20.35512],[77.45259,20.35011],[77.45284,20.34975],[77.4642,20.34906],[77.46716,20.35007],[77.46812,20.35001],[77.47,20.35088],[77.4701,20.35238],[77.4698,20.35361],[77.4727,20.35421],[77.47277,20.35639],[77.47227,20.35669],[77.47113,20.3591],[77.47298,20.35948],[77.47765,20.35942],[77.47819,20.35876],[77.47881,20.35855],[77.47894,20.35809],[77.48284,20.35693],[77.48342,20.35836],[77.4881,20.35774],[77.4887,20.3585],[77.48821,20.34589],[77.48634,20.33284],[77.48678,20.32733],[77.4866,20.32473],[77.4871,20.32154],[77.48677,20.3155],[77.48498,20.31627],[77.48182,20.31847],[77.48149,20.31827],[77.48105,20.31647],[77.48153,20.31557],[77.48206,20.31216],[77.48282,20.31113],[77.4853,20.30444],[77.48667,20.30398],[77.4856,20.30149],[77.48727,20.29781],[77.49152,20.29579],[77.4893,20.29259],[77.48878,20.29076],[77.48951,20.28949],[77.48986,20.28713],[77.489,20.28405],[77.48887,20.27902],[77.4883,20.27784],[77.48532,20.27585],[77.47274,20.27545],[77.46778,20.27565],[77.45535,20.28132],[77.45157,20.28924],[77.44823,20.28777],[77.44737,20.28771],[77.4456,20.28577],[77.44417,20.28491],[77.44302,20.28502],[77.43558,20.28201],[77.42917,20.27736],[77.42857,20.27618],[77.4284,20.27284],[77.43594,20.26768],[77.4401,20.26373],[77.44291,20.26206],[77.44161,20.25823],[77.44114,20.25518],[77.43775,20.25485],[77.43677,20.25534],[77.43465,20.25473],[77.43345,20.25374],[77.43251,20.25404],[77.43159,20.25318],[77.43105,20.25338],[77.43047,20.25295],[77.42905,20.25283],[77.42819,20.25063],[77.42765,20.25019],[77.42747,20.24921],[77.42777,20.24826],[77.43153,20.24768],[77.43565,20.24767],[77.43943,20.24808],[77.43996,20.24841],[77.44157,20.24818],[77.44314,20.24881],[77.44418,20.24866],[77.44515,20.24665],[77.44622,20.24564],[77.44423,20.24195],[77.44277,20.23598],[77.44293,20.23566],[77.44434,20.23528],[77.44425,20.23148],[77.4445,20.23111],[77.44345,20.22842],[77.44209,20.22166],[77.43666,20.22196],[77.43366,20.22147],[77.42926,20.22133],[77.419,20.22472],[77.41564,20.22547],[77.41524,20.2237],[77.41307,20.2185],[77.40824,20.21641],[77.40717,20.21398],[77.40553,20.21133],[77.40275,20.20892],[77.4028,20.20779],[77.39935,20.20667],[77.39799,20.20365],[77.39692,20.19815],[77.39847,20.19321],[77.39915,20.19306],[77.40414,20.19626],[77.41804,20.17732],[77.41985,20.17567],[77.41966,20.17485],[77.42053,20.16892],[77.41928,20.16607],[77.41901,20.16423],[77.41465,20.16437],[77.41257,20.16479],[77.41141,20.16517],[77.40985,20.16688],[77.4051,20.16796],[77.40252,20.16769],[77.39924,20.16791],[77.39401,20.16715],[77.39064,20.16521],[77.38891,20.16456],[77.38704,20.16122],[77.38525,20.16048],[77.38537,20.15698],[77.38617,20.15505],[77.39124,20.15454],[77.39198,20.15382],[77.39227,20.15266],[77.39219,20.15156],[77.39112,20.14842],[77.38881,20.14805],[77.38739,20.14627],[77.38914,20.14469],[77.3902,20.14292],[77.391,20.14253],[77.39215,20.14294],[77.39368,20.14609],[77.3951,20.14631],[77.3958,20.14503],[77.39633,20.14242],[77.39493,20.13895],[77.39567,20.13748],[77.38464,20.13289],[77.38334,20.13225],[77.38293,20.13172],[77.37693,20.13257],[77.37337,20.13066],[77.37014,20.13007],[77.36808,20.12461],[77.36685,20.12265],[77.36532,20.1217],[77.36436,20.11917],[77.36447,20.11173],[77.36147,20.10594],[77.36254,20.09935],[77.363,20.09863],[77.36484,20.09833],[77.36633,20.09608],[77.36823,20.09407],[77.3689,20.09221],[77.36916,20.08905],[77.36806,20.08763],[77.36644,20.08437],[77.36469,20.08233],[77.36254,20.08064],[77.36002,20.07893],[77.35593,20.07715],[77.3535,20.07711],[77.35135,20.07749],[77.3488,20.07951],[77.34804,20.08219],[77.34815,20.08734],[77.34929,20.09366],[77.34895,20.09453],[77.34798,20.09563],[77.34266,20.09641],[77.34085,20.09594],[77.33814,20.09685],[77.33708,20.09681],[77.33612,20.09634],[77.33178,20.09134],[77.32826,20.09134],[77.32603,20.09073],[77.32533,20.09116],[77.32452,20.09109],[77.32195,20.09342],[77.32165,20.09456],[77.32229,20.09638],[77.32206,20.09679],[77.32294,20.09885],[77.32464,20.10517],[77.32535,20.11459],[77.32771,20.12348],[77.3272,20.12717],[77.32053,20.12915],[77.31924,20.13126],[77.31586,20.13292],[77.31427,20.13711],[77.31249,20.13934],[77.31249,20.14203],[77.30946,20.14322],[77.30601,20.1439],[77.30411,20.14391],[77.2976,20.14631],[77.29055,20.14992],[77.28632,20.15579],[77.27415,20.15983],[77.26914,20.16332],[77.27443,20.17621],[77.27825,20.18002],[77.27939,20.18279],[77.27223,20.18468],[77.27215,20.18522],[77.2707,20.18557],[77.27037,20.18544],[77.27013,20.18455],[77.26377,20.1868],[77.25413,20.18859],[77.25517,20.19356],[77.24985,20.19507],[77.24924,20.19652],[77.24773,20.1977],[77.24535,20.2003],[77.24341,20.20149],[77.24232,20.20289],[77.24202,20.20384],[77.24243,20.20447],[77.24325,20.20548],[77.24644,20.20801],[77.24645,20.20871],[77.24531,20.21067],[77.24488,20.2135],[77.24398,20.21464],[77.24477,20.21665],[77.24647,20.21723],[77.24983,20.21688],[77.25087,20.21739],[77.25088,20.21837],[77.24988,20.21973],[77.24984,20.22105],[77.25295,20.22165],[77.25379,20.22222],[77.25433,20.22394],[77.25444,20.22568],[77.2542,20.22595],[77.24482,20.22809],[77.24302,20.23287],[77.24256,20.2352],[77.24109,20.23782],[77.23976,20.2393],[77.23964,20.24086],[77.24142,20.24269],[77.24139,20.24306],[77.24389,20.24695],[77.24826,20.24933],[77.25352,20.26096],[77.25254,20.26289],[77.24738,20.26923],[77.24769,20.27146],[77.23845,20.27076],[77.23023,20.27171],[77.22609,20.27311],[77.22597,20.27383],[77.22468,20.27438],[77.22564,20.27648],[77.22161,20.27992],[77.21848,20.28153],[77.21662,20.28358],[77.21585,20.28492],[77.21408,20.2866],[77.21503,20.28861],[77.21556,20.29352],[77.21779,20.29769],[77.22124,20.30535],[77.21929,20.30746],[77.21846,20.30919],[77.21808,20.31092],[77.21836,20.31686],[77.21743,20.3254],[77.21792,20.32917],[77.21949,20.33421],[77.21897,20.3347],[77.21715,20.33512],[77.21483,20.33408],[77.21426,20.33439],[77.21141,20.3346],[77.20911,20.3351],[77.20627,20.33666],[77.20103,20.3381],[77.19808,20.33847],[77.19826,20.34098],[77.19908,20.34234],[77.19899,20.3444],[77.19409,20.34479],[77.18998,20.34557],[77.18924,20.34617],[77.18605,20.34681],[77.18442,20.34875],[77.18322,20.34903],[77.18341,20.35081],[77.18029,20.35119],[77.18109,20.35457],[77.18082,20.35791],[77.17425,20.35859],[77.16782,20.36005],[77.16401,20.36026],[77.16106,20.36124],[77.15798,20.36112],[77.15516,20.3618],[77.15553,20.36609],[77.15446,20.36697],[77.15448,20.36819],[77.15335,20.3699],[77.14546,20.37735],[77.145,20.37825],[77.145,20.37901],[77.14399,20.38048],[77.14559,20.38638]]],[[[77.47431,20.3911],[77.4751,20.39163],[77.47649,20.39164],[77.47693,20.39378],[77.48483,20.39272],[77.48731,20.39177],[77.4866,20.39034],[77.48476,20.38922],[77.4847,20.38878],[77.48285,20.38739],[77.48221,20.38575],[77.48027,20.38489],[77.47951,20.38332],[77.48045,20.38023],[77.47679,20.38079],[77.47377,20.38061],[77.47331,20.38231],[77.47255,20.39071],[77.47431,20.3911]]]]}},{"type":"Feature","properties":{"taluka":"Manora","district":"Washim","villages":137},"geometry":{"type":"Polygon","coordinates":[[[77.36447,20.11172],[77.36434,20.11913],[77.36532,20.12172],[77.36685,20.12267],[77.36807,20.1246],[77.37026,20.13028],[77.37342,20.13069],[77.3769,20.13258],[77.38288,20.13177],[77.38463,20.13289],[77.39551,20.13748],[77.39491,20.13894],[77.39632,20.14247],[77.3958,20.14503],[77.39518,20.14623],[77.39417,20.14634],[77.39367,20.14608],[77.39213,20.14291],[77.39094,20.14252],[77.39022,20.14289],[77.38911,20.14471],[77.38737,20.14624],[77.38737,20.14659],[77.38885,20.14808],[77.39111,20.14845],[77.39219,20.1516],[77.39226,20.15268],[77.3917,20.15425],[77.3902,20.15469],[77.38657,20.15485],[77.38583,20.15547],[77.38556,20.15619],[77.38514,20.16027],[77.38706,20.16125],[77.38889,20.16458],[77.39063,20.16521],[77.39399,20.16715],[77.39924,20.16791],[77.40252,20.16769],[77.40497,20.16798],[77.40989,20.16688],[77.4114,20.16519],[77.4126,20.16479],[77.41468,20.16437],[77.41907,20.16443],[77.41926,20.16603],[77.42055,20.16902],[77.41965,20.1749],[77.41976,20.17575],[77.41806,20.17729],[77.40423,20.19611],[77.39908,20.19301],[77.39849,20.1931],[77.39692,20.19813],[77.39799,20.20365],[77.39937,20.20677],[77.40271,20.20777],[77.4027,20.20886],[77.40554,20.21136],[77.40718,20.21399],[77.4082,20.21641],[77.41302,20.2185],[77.41523,20.2237],[77.41549,20.22556],[77.419,20.22472],[77.42928,20.22133],[77.43365,20.22147],[77.43666,20.22196],[77.44213,20.22186],[77.44345,20.22842],[77.44444,20.231],[77.44433,20.23515],[77.44272,20.23572],[77.44423,20.24195],[77.44607,20.24564],[77.44396,20.24869],[77.44266,20.24871],[77.44157,20.24816],[77.43999,20.24839],[77.43948,20.24808],[77.43565,20.24767],[77.43153,20.24768],[77.42761,20.2483],[77.42747,20.24919],[77.42766,20.25026],[77.4282,20.25068],[77.42906,20.25285],[77.4304,20.25297],[77.43105,20.25341],[77.43173,20.25325],[77.43246,20.25404],[77.4335,20.25381],[77.43462,20.25472],[77.4368,20.2554],[77.43781,20.25486],[77.44107,20.25523],[77.44161,20.25823],[77.44284,20.262],[77.4401,20.26373],[77.43594,20.26769],[77.42832,20.27288],[77.42857,20.27622],[77.4292,20.27741],[77.43559,20.28202],[77.44306,20.28504],[77.44423,20.28495],[77.44561,20.28578],[77.44739,20.28775],[77.44827,20.28779],[77.45166,20.2894],[77.45538,20.28132],[77.46778,20.27565],[77.47275,20.27545],[77.48529,20.27586],[77.48826,20.27781],[77.48887,20.27902],[77.489,20.28407],[77.48986,20.28712],[77.48952,20.28945],[77.48875,20.29066],[77.48929,20.29258],[77.49136,20.29571],[77.48731,20.29774],[77.48559,20.30147],[77.48658,20.30399],[77.48538,20.30428],[77.48284,20.3111],[77.48206,20.31214],[77.48153,20.31555],[77.48102,20.31639],[77.48158,20.31865],[77.48498,20.31627],[77.48641,20.31566],[77.48677,20.31589],[77.4871,20.32154],[77.4866,20.32471],[77.48678,20.32732],[77.48639,20.3339],[77.48774,20.34144],[77.48821,20.34589],[77.48857,20.3575],[77.48546,20.35827],[77.48363,20.35836],[77.48308,20.35687],[77.48046,20.35749],[77.47957,20.35809],[77.4786,20.35803],[77.47864,20.35849],[77.47756,20.35941],[77.47299,20.35948],[77.47148,20.35917],[77.47125,20.35881],[77.47183,20.35752],[77.47226,20.35673],[77.47279,20.35653],[77.47269,20.35399],[77.46993,20.35354],[77.47017,20.35097],[77.46808,20.34999],[77.46712,20.35005],[77.46421,20.34905],[77.45251,20.34976],[77.45389,20.35512],[77.45445,20.36157],[77.45202,20.36319],[77.4474,20.36514],[77.44409,20.36478],[77.44299,20.36438],[77.44195,20.36447],[77.44224,20.36608],[77.44204,20.36824],[77.44268,20.36856],[77.44279,20.37126],[77.44402,20.37517],[77.44927,20.37422],[77.45534,20.37244],[77.45484,20.37065],[77.45642,20.36975],[77.45592,20.36868],[77.45618,20.36782],[77.46264,20.3682],[77.46174,20.37358],[77.46739,20.37409],[77.46776,20.37463],[77.46877,20.37467],[77.46953,20.37398],[77.47055,20.37415],[77.47167,20.3735],[77.47356,20.37496],[77.47598,20.37432],[77.48167,20.37194],[77.48326,20.37172],[77.48341,20.37204],[77.483,20.37298],[77.48222,20.37748],[77.48124,20.37796],[77.47963,20.3823],[77.47948,20.38334],[77.48031,20.38497],[77.48217,20.38575],[77.48282,20.38737],[77.48456,20.38869],[77.48458,20.38919],[77.48659,20.39032],[77.48789,20.39345],[77.49175,20.39735],[77.49349,20.39813],[77.49428,20.39951],[77.49696,20.40054],[77.49989,20.40066],[77.50125,20.40142],[77.50254,20.40775],[77.50254,20.41228],[77.50338,20.41356],[77.50497,20.4151],[77.50761,20.41626],[77.50976,20.41643],[77.51188,20.41702],[77.5131,20.41805],[77.51464,20.41863],[77.52267,20.41915],[77.52812,20.41911],[77.52849,20.41944],[77.53256,20.41994],[77.54359,20.41562],[77.54537,20.41385],[77.54733,20.4101],[77.55138,20.40799],[77.55306,20.40764],[77.55763,20.41254],[77.55956,20.41394],[77.56116,20.41464],[77.5623,20.41475],[77.5632,20.41441],[77.56375,20.41362],[77.56436,20.41129],[77.56425,20.40941],[77.56532,20.40615],[77.5685,20.40115],[77.57126,20.4],[77.57387,20.4006],[77.57409,20.39896],[77.57301,20.3951],[77.57187,20.38583],[77.57246,20.38333],[77.57626,20.3729],[77.57889,20.37225],[77.57665,20.36823],[77.57476,20.3658],[77.56884,20.35997],[77.56948,20.3588],[77.56851,20.35774],[77.56896,20.35263],[77.56736,20.34616],[77.56791,20.33943],[77.56747,20.33702],[77.56785,20.3327],[77.5675,20.32971],[77.56902,20.3287],[77.5707,20.32932],[77.57216,20.32881],[77.57519,20.33093],[77.57606,20.32998],[77.57643,20.32898],[77.57728,20.32858],[77.57905,20.32648],[77.58065,20.32645],[77.58204,20.32703],[77.58436,20.32696],[77.58314,20.32287],[77.58326,20.32137],[77.58418,20.31879],[77.58419,20.31695],[77.58535,20.31481],[77.58607,20.31152],[77.58797,20.30881],[77.58795,20.30659],[77.58858,20.30631],[77.58957,20.30652],[77.59136,20.30539],[77.59257,20.3051],[77.5948,20.30305],[77.59381,20.29916],[77.59461,20.29772],[77.5938,20.29247],[77.59419,20.29161],[77.59422,20.28944],[77.5948,20.28647],[77.59439,20.28087],[77.59733,20.28073],[77.59795,20.28205],[77.59849,20.282],[77.60656,20.27954],[77.61026,20.27883],[77.60969,20.27594],[77.60949,20.27165],[77.61049,20.26408],[77.6211,20.26213],[77.63351,20.26141],[77.64363,20.25059],[77.64623,20.25003],[77.65759,20.24935],[77.66543,20.2474],[77.66585,20.24422],[77.66538,20.24148],[77.66132,20.23313],[77.65919,20.22956],[77.65879,20.22663],[77.65559,20.22027],[77.65371,20.2173],[77.65269,20.21466],[77.65258,20.21344],[77.65312,20.21265],[77.65226,20.2104],[77.65337,20.20898],[77.65779,20.20727],[77.65746,20.20537],[77.65578,20.2004],[77.65508,20.20047],[77.65487,20.19928],[77.65403,20.19895],[77.65287,20.19736],[77.65142,20.19741],[77.65083,20.19575],[77.65015,20.19502],[77.65004,20.19413],[77.64852,20.19358],[77.64709,20.19097],[77.64661,20.18945],[77.64476,20.1881],[77.64427,20.18712],[77.6462,20.18636],[77.64954,20.18575],[77.64915,20.18368],[77.64958,20.17985],[77.64904,20.17532],[77.65228,20.17412],[77.65199,20.17224],[77.65249,20.17178],[77.65578,20.17249],[77.6577,20.17209],[77.65879,20.17243],[77.65943,20.17219],[77.66127,20.17381],[77.66301,20.1736],[77.66416,20.17298],[77.66592,20.17297],[77.66818,20.17235],[77.6681,20.17099],[77.66922,20.1705],[77.67206,20.17005],[77.67185,20.16873],[77.67465,20.16816],[77.67465,20.16742],[77.67511,20.1671],[77.67623,20.16782],[77.67927,20.16734],[77.67947,20.16669],[77.67752,20.1614],[77.67737,20.16029],[77.67787,20.1591],[77.6771,20.15491],[77.67651,20.15347],[77.67535,20.15321],[77.6738,20.14771],[77.67584,20.14403],[77.682,20.14431],[77.68213,20.14099],[77.67954,20.13462],[77.67748,20.13057],[77.67038,20.1199],[77.67054,20.11797],[77.67105,20.11758],[77.6714,20.11518],[77.67122,20.11281],[77.6709,20.11119],[77.66962,20.10862],[77.66989,20.10674],[77.66925,20.10601],[77.66894,20.10194],[77.6667,20.10039],[77.66636,20.0983],[77.66498,20.0989],[77.66214,20.09835],[77.66001,20.09947],[77.65974,20.09919],[77.65979,20.09607],[77.65709,20.09752],[77.6567,20.09736],[77.65508,20.08552],[77.65527,20.08],[77.6543,20.08031],[77.6529,20.0784],[77.65133,20.07837],[77.64949,20.07685],[77.64166,20.07514],[77.64054,20.0738],[77.64039,20.07005],[77.64094,20.06438],[77.64023,20.06071],[77.63727,20.05849],[77.63743,20.05475],[77.63411,20.04996],[77.63147,20.04762],[77.62999,20.04529],[77.62706,20.0457],[77.62424,20.04154],[77.61915,20.04023],[77.61528,20.0403],[77.61399,20.03736],[77.61141,20.03849],[77.60979,20.03784],[77.60834,20.03615],[77.60541,20.03584],[77.60379,20.03624],[77.60103,20.03463],[77.59624,20.03768],[77.59556,20.03615],[77.59341,20.03493],[77.59006,20.03207],[77.58458,20.03345],[77.58067,20.02883],[77.57535,20.03235],[77.57209,20.0358],[77.57039,20.04036],[77.5684,20.04271],[77.56582,20.04255],[77.56019,20.04825],[77.5549,20.04746],[77.55414,20.05216],[77.55234,20.0556],[77.55358,20.05716],[77.55158,20.05915],[77.55021,20.0654],[77.54375,20.06705],[77.54009,20.06994],[77.53982,20.07181],[77.53658,20.07636],[77.53635,20.07975],[77.53398,20.08188],[77.53283,20.08252],[77.53032,20.08505],[77.52632,20.09028],[77.52538,20.09206],[77.5243,20.09555],[77.52465,20.09726],[77.52446,20.09757],[77.51954,20.09354],[77.51302,20.09144],[77.50874,20.08897],[77.50009,20.08593],[77.49874,20.08512],[77.49441,20.07876],[77.48977,20.07821],[77.48561,20.07733],[77.48155,20.081],[77.47951,20.08407],[77.47916,20.08416],[77.47668,20.08036],[77.47224,20.07796],[77.46433,20.06955],[77.45948,20.06936],[77.45262,20.07037],[77.44613,20.0704],[77.44488,20.0708],[77.44396,20.07229],[77.44273,20.07277],[77.44204,20.07352],[77.44019,20.07391],[77.43931,20.07314],[77.43839,20.07367],[77.43543,20.07404],[77.43127,20.07512],[77.42828,20.07636],[77.42487,20.07677],[77.42297,20.07735],[77.42233,20.07819],[77.42123,20.07866],[77.41993,20.07878],[77.41908,20.07822],[77.41838,20.07841],[77.41756,20.07874],[77.41615,20.08037],[77.41425,20.08066],[77.41165,20.08244],[77.41069,20.08221],[77.4079,20.08281],[77.40761,20.08358],[77.40573,20.08298],[77.40173,20.08352],[77.38847,20.08619],[77.38345,20.0865],[77.37656,20.09059],[77.36611,20.09818],[77.36291,20.09864],[77.36252,20.0994],[77.36146,20.10597],[77.36447,20.11172]]]}},{"type":"Feature","properties":{"taluka":"Risod","district":"Washim","villages":100},"geometry":{"type":"Polygon","coordinates":[[[76.60674,19.9248],[76.60737,19.92493],[76.61028,19.92393],[76.61845,19.92312],[76.62233,19.92307],[76.62839,19.92551],[76.63646,19.93374],[76.6369,19.93829],[76.63548,19.94361],[76.63565,19.95138],[76.63444,19.95346],[76.63428,19.95512],[76.63451,19.95638],[76.63663,19.95946],[76.63849,19.96],[76.64144,19.96158],[76.64536,19.96489],[76.64866,19.96467],[76.65601,19.96484],[76.65883,19.96442],[76.65928,19.96558],[76.66081,19.97665],[76.66067,19.9787],[76.65477,19.98128],[76.64949,19.98266],[76.64611,19.98412],[76.6455,19.98466],[76.64948,19.98913],[76.65161,19.99218],[76.65556,19.99932],[76.65691,20.0009],[76.65836,20.00196],[76.65858,20.00671],[76.65813,20.01388],[76.65843,20.02181],[76.65877,20.02355],[76.65962,20.02547],[76.66126,20.03253],[76.66319,20.04625],[76.66293,20.04751],[76.66132,20.04804],[76.65562,20.04865],[76.63529,20.04962],[76.63497,20.05026],[76.63241,20.04971],[76.62784,20.05115],[76.62403,20.05125],[76.62632,20.063],[76.62943,20.07471],[76.63046,20.08221],[76.63249,20.08198],[76.63409,20.08068],[76.6333,20.07922],[76.63251,20.07609],[76.63292,20.07439],[76.63547,20.0736],[76.63762,20.07169],[76.64238,20.0707],[76.64625,20.06923],[76.64696,20.06913],[76.64839,20.06959],[76.64855,20.07426],[76.64912,20.07696],[76.6494,20.08071],[76.6519,20.09139],[76.65241,20.09158],[76.65825,20.09761],[76.65991,20.0973],[76.66021,20.09753],[76.65868,20.10226],[76.65785,20.10619],[76.65768,20.10978],[76.65811,20.11345],[76.66274,20.11771],[76.66329,20.11769],[76.66676,20.11944],[76.66893,20.12611],[76.6733,20.12531],[76.67727,20.124],[76.68193,20.12296],[76.69211,20.12153],[76.69644,20.12168],[76.70095,20.1221],[76.70119,20.12247],[76.70807,20.12275],[76.71042,20.12331],[76.71633,20.12612],[76.7221,20.12719],[76.72598,20.12676],[76.73093,20.12518],[76.7322,20.12505],[76.73656,20.12647],[76.73883,20.1267],[76.74377,20.12833],[76.74948,20.12832],[76.75743,20.13112],[76.75877,20.13298],[76.76017,20.13949],[76.76057,20.14338],[76.75992,20.14488],[76.75987,20.14584],[76.76069,20.14843],[76.76215,20.16112],[76.76153,20.16148],[76.75933,20.16162],[76.7524,20.16453],[76.74829,20.16543],[76.74969,20.17159],[76.75034,20.17757],[76.74959,20.18175],[76.74935,20.1867],[76.74744,20.18736],[76.74687,20.1884],[76.74665,20.19309],[76.74523,20.19576],[76.74506,20.20016],[76.74521,20.20221],[76.74593,20.20335],[76.74678,20.20672],[76.75049,20.20703],[76.75054,20.20862],[76.75968,20.2094],[76.76829,20.20936],[76.77171,20.20863],[76.77349,20.20784],[76.7731,20.20623],[76.77331,20.20592],[76.78473,20.20325],[76.78672,20.20441],[76.78806,20.20468],[76.78924,20.20595],[76.79034,20.20785],[76.79138,20.21155],[76.79373,20.21514],[76.79485,20.21829],[76.80152,20.221],[76.80746,20.2202],[76.81093,20.21933],[76.8127,20.21851],[76.8193,20.2177],[76.82479,20.21563],[76.82648,20.21346],[76.83269,20.21192],[76.83856,20.21143],[76.83882,20.21108],[76.84182,20.2103],[76.84266,20.21033],[76.84288,20.21111],[76.84354,20.21102],[76.84783,20.2089],[76.84763,20.20796],[76.8496,20.20694],[76.85129,20.20558],[76.85358,20.20269],[76.85344,20.20209],[76.8539,20.20137],[76.85613,20.19947],[76.8576,20.19765],[76.85807,20.19754],[76.85914,20.19384],[76.85957,20.19021],[76.8605,20.18994],[76.86571,20.18635],[76.86938,20.18548],[76.8694,20.18411],[76.8726,20.1818],[76.87354,20.17849],[76.87542,20.17515],[76.88043,20.17304],[76.87968,20.1698],[76.88037,20.16664],[76.87997,20.16388],[76.8799,20.15996],[76.88045,20.15903],[76.87621,20.15727],[76.87329,20.15514],[76.87325,20.1546],[76.86901,20.15326],[76.86878,20.15273],[76.86685,20.15261],[76.86664,20.1543],[76.86256,20.15729],[76.86166,20.15872],[76.8613,20.15893],[76.85901,20.15883],[76.85892,20.16053],[76.8565,20.16096],[76.85438,20.16036],[76.85418,20.15896],[76.853,20.15833],[76.8522,20.15716],[76.84969,20.15669],[76.84793,20.15588],[76.84979,20.14852],[76.85149,20.14795],[76.8521,20.1458],[76.85166,20.13728],[76.857,20.13704],[76.85532,20.13082],[76.85837,20.12191],[76.85961,20.11946],[76.86066,20.11943],[76.86271,20.12006],[76.86854,20.12047],[76.87892,20.12025],[76.88451,20.11942],[76.89155,20.11595],[76.89235,20.11347],[76.89588,20.11017],[76.8994,20.10869],[76.90321,20.10658],[76.90644,20.10543],[76.91178,20.10489],[76.91354,20.10719],[76.91531,20.11085],[76.91714,20.11078],[76.91851,20.11195],[76.9193,20.11176],[76.91956,20.11221],[76.92328,20.11155],[76.92401,20.11064],[76.92431,20.10934],[76.92598,20.1074],[76.9281,20.1025],[76.93229,20.10021],[76.9359,20.09892],[76.94068,20.09838],[76.94032,20.09676],[76.93961,20.09586],[76.93845,20.09235],[76.93687,20.09011],[76.93688,20.08544],[76.93754,20.08393],[76.93778,20.08227],[76.93755,20.08119],[76.93788,20.07998],[76.93768,20.07816],[76.93736,20.07783],[76.93752,20.07699],[76.9384,20.07726],[76.9423,20.08004],[76.94423,20.08165],[76.94449,20.08233],[76.94829,20.08202],[76.94992,20.0822],[76.9511,20.08273],[76.95392,20.08203],[76.95572,20.08115],[76.96203,20.08077],[76.96467,20.08844],[76.97198,20.08798],[76.97703,20.08847],[76.98313,20.08833],[76.9834,20.08432],[76.98404,20.08257],[76.98377,20.08225],[76.98389,20.07805],[76.98317,20.07617],[76.97994,20.07316],[76.97992,20.07191],[76.98988,20.07068],[76.99201,20.06995],[76.99215,20.06939],[76.99733,20.06776],[77.00395,20.06677],[77.00334,20.05676],[77.00185,20.04987],[77.00173,20.04448],[77.00322,20.04324],[77.00437,20.03997],[77.00545,20.03858],[77.0066,20.03307],[77.00731,20.03118],[77.0076,20.02879],[77.0134,20.02725],[77.01406,20.02563],[77.0145,20.02095],[77.01359,20.01214],[77.01252,20.00827],[77.01045,20.00348],[77.00593,20.00689],[76.99581,20.01725],[76.9949,20.01762],[76.99225,20.01712],[76.99202,20.01678],[76.99211,20.0119],[76.99048,20.00569],[76.98903,20.0027],[76.98835,19.99807],[76.98086,19.99769],[76.97241,19.9964],[76.9686,19.99351],[76.96386,19.98854],[76.96189,19.98728],[76.9555,19.98574],[76.95324,19.98544],[76.94869,19.98572],[76.94391,19.98488],[76.94301,19.98327],[76.9375,19.98127],[76.93376,19.97886],[76.93247,19.97837],[76.92677,19.97756],[76.92236,19.97587],[76.9205,19.97372],[76.91809,19.97215],[76.91274,19.96928],[76.90054,19.96413],[76.90008,19.95447],[76.89956,19.95274],[76.89828,19.95298],[76.89538,19.94913],[76.89392,19.94924],[76.89226,19.95178],[76.88902,19.95279],[76.88212,19.95342],[76.87717,19.95425],[76.87315,19.9543],[76.87268,19.95458],[76.87218,19.95829],[76.86736,19.95915],[76.85983,19.96154],[76.85743,19.96211],[76.84725,19.96268],[76.83734,19.96387],[76.8361,19.96252],[76.83564,19.96241],[76.83483,19.96028],[76.83309,19.95723],[76.83137,19.95169],[76.83053,19.94735],[76.82712,19.93991],[76.82519,19.93725],[76.82289,19.93187],[76.82136,19.9292],[76.8153,19.92987],[76.80906,19.93011],[76.80528,19.92992],[76.7978,19.93148],[76.79713,19.93243],[76.79524,19.93297],[76.79076,19.9335],[76.78073,19.93371],[76.77768,19.93405],[76.7723,19.93558],[76.77138,19.93241],[76.77145,19.92481],[76.77069,19.91891],[76.77019,19.91693],[76.76573,19.90611],[76.7654,19.90441],[76.7614,19.90493],[76.76123,19.90535],[76.75652,19.90806],[76.75583,19.90813],[76.74764,19.9121],[76.74707,19.91203],[76.74423,19.90417],[76.74255,19.90183],[76.74232,19.89859],[76.74366,19.89188],[76.74367,19.88558],[76.74266,19.88288],[76.74249,19.88122],[76.74027,19.87331],[76.72773,19.87131],[76.72132,19.86945],[76.71584,19.87077],[76.70948,19.87141],[76.70664,19.87202],[76.70581,19.87325],[76.70286,19.87438],[76.69857,19.87541],[76.69313,19.87404],[76.69298,19.87043],[76.68934,19.86388],[76.69195,19.85961],[76.68854,19.8583],[76.68493,19.85026],[76.684,19.84963],[76.6828,19.84802],[76.6812,19.84699],[76.67892,19.84693],[76.67888,19.84754],[76.67428,19.84937],[76.66572,19.85104],[76.66363,19.85245],[76.66165,19.85325],[76.65495,19.85748],[76.65449,19.86017],[76.6531,19.86164],[76.6498,19.86366],[76.64713,19.86699],[76.65258,19.87354],[76.65301,19.87881],[76.65522,19.88088],[76.65879,19.88575],[76.65963,19.89237],[76.65688,19.89729],[76.65447,19.9004],[76.64856,19.90011],[76.64429,19.89942],[76.63329,19.89929],[76.63059,19.8952],[76.63,19.89457],[76.62857,19.89395],[76.6279,19.89278],[76.62642,19.8923],[76.62431,19.88954],[76.6169,19.892],[76.61362,19.89249],[76.61294,19.89326],[76.61098,19.89309],[76.61042,19.89627],[76.61065,19.89979],[76.61202,19.90064],[76.61275,19.90171],[76.61362,19.90438],[76.61357,19.90672],[76.61312,19.90716],[76.613,19.90978],[76.61195,19.91216],[76.61152,19.91598],[76.61067,19.91813],[76.6093,19.92034],[76.60807,19.92146],[76.60641,19.92235],[76.60567,19.92213],[76.60674,19.9248]]]}},{"type":"Feature","properties":{"taluka":"Washim","district":"Washim","villages":129},"geometry":{"type":"Polygon","coordinates":[[[77.00185,20.04989],[77.00334,20.05676],[77.00405,20.06879],[77.00635,20.07122],[77.01093,20.074],[77.01387,20.0836],[77.01312,20.08414],[77.01191,20.08429],[77.01313,20.09185],[77.01274,20.09403],[77.0112,20.09768],[77.00991,20.09957],[77.00994,20.10169],[77.01254,20.1081],[77.01254,20.11161],[77.01381,20.11524],[77.01724,20.12102],[77.01924,20.12528],[77.02891,20.12354],[77.03441,20.12143],[77.03666,20.12076],[77.03968,20.12036],[77.0417,20.11966],[77.04332,20.12604],[77.04441,20.12892],[77.04674,20.12659],[77.047,20.12564],[77.0484,20.12477],[77.05138,20.12755],[77.05127,20.12788],[77.04868,20.12942],[77.04992,20.13155],[77.05063,20.13391],[77.05082,20.13953],[77.05028,20.14391],[77.051,20.14756],[77.04864,20.14841],[77.04539,20.15052],[77.04254,20.15166],[77.04371,20.15464],[77.04502,20.15442],[77.047,20.15485],[77.04967,20.15748],[77.05566,20.15855],[77.05572,20.1603],[77.05426,20.16055],[77.05359,20.16538],[77.05445,20.18933],[77.05889,20.18923],[77.06506,20.19215],[77.08135,20.18982],[77.0831,20.18929],[77.09353,20.19388],[77.09595,20.19554],[77.09694,20.1968],[77.09817,20.19762],[77.10083,20.20024],[77.10312,20.20065],[77.10315,20.1987],[77.10259,20.19763],[77.10279,20.19629],[77.11057,20.19507],[77.11557,20.19313],[77.11841,20.19128],[77.12002,20.18981],[77.12024,20.18918],[77.12316,20.18671],[77.12378,20.18677],[77.12457,20.19125],[77.12959,20.19371],[77.13431,20.19438],[77.13842,20.19724],[77.14048,20.19936],[77.14228,20.20005],[77.14262,20.20585],[77.14392,20.21233],[77.14376,20.21663],[77.14248,20.21819],[77.14275,20.22047],[77.14219,20.22512],[77.14323,20.22543],[77.14657,20.22787],[77.14699,20.2277],[77.1496,20.22841],[77.15031,20.23038],[77.15192,20.23049],[77.15321,20.23433],[77.15421,20.23481],[77.1555,20.23648],[77.15536,20.24641],[77.15109,20.24977],[77.14158,20.25195],[77.1395,20.25181],[77.13872,20.25145],[77.13713,20.24894],[77.13217,20.24954],[77.13252,20.2511],[77.13098,20.25633],[77.13049,20.26337],[77.13176,20.27107],[77.13227,20.27105],[77.13607,20.27396],[77.13747,20.27636],[77.14085,20.27519],[77.14824,20.27398],[77.14937,20.27343],[77.15444,20.27313],[77.15868,20.27243],[77.17066,20.26902],[77.1715,20.26709],[77.17227,20.26684],[77.17208,20.26505],[77.17232,20.26395],[77.17457,20.26229],[77.17517,20.26071],[77.17559,20.2605],[77.18245,20.26138],[77.18764,20.26115],[77.19141,20.26163],[77.19163,20.26205],[77.19118,20.26516],[77.19019,20.26963],[77.18744,20.27545],[77.18707,20.27897],[77.1859,20.28011],[77.18568,20.28089],[77.18566,20.28585],[77.18816,20.28809],[77.19416,20.29017],[77.19632,20.29002],[77.19873,20.28872],[77.19951,20.28981],[77.1998,20.29117],[77.20042,20.29141],[77.20406,20.28942],[77.21018,20.28868],[77.21203,20.28808],[77.21416,20.28678],[77.21846,20.28155],[77.22162,20.27992],[77.2258,20.27636],[77.22486,20.27444],[77.22607,20.27376],[77.22621,20.27311],[77.22767,20.27244],[77.23023,20.27171],[77.23844,20.27076],[77.248,20.27146],[77.24746,20.26913],[77.2521,20.26312],[77.2525,20.26297],[77.25356,20.26092],[77.2482,20.2492],[77.24386,20.24691],[77.24152,20.24325],[77.24161,20.24287],[77.23969,20.24091],[77.23976,20.23937],[77.24109,20.23783],[77.24258,20.23516],[77.24302,20.23288],[77.24423,20.23021],[77.24477,20.22815],[77.25447,20.22589],[77.25433,20.22396],[77.25381,20.22222],[77.25299,20.22165],[77.24983,20.22092],[77.24989,20.21973],[77.25087,20.2184],[77.25095,20.21745],[77.24986,20.21688],[77.24645,20.21723],[77.24474,20.21658],[77.24401,20.21463],[77.24489,20.21352],[77.24532,20.21071],[77.24648,20.20864],[77.24643,20.2079],[77.24323,20.20545],[77.24204,20.20386],[77.24232,20.20289],[77.2434,20.2015],[77.24537,20.20029],[77.24774,20.19769],[77.24932,20.19648],[77.24989,20.19507],[77.25535,20.19358],[77.25424,20.19008],[77.25431,20.18857],[77.26377,20.1868],[77.26985,20.18464],[77.27018,20.18478],[77.27042,20.18564],[77.27238,20.18518],[77.27251,20.18462],[77.27958,20.18289],[77.27826,20.18003],[77.2744,20.17616],[77.27303,20.17243],[77.27149,20.16957],[77.26932,20.1632],[77.27416,20.15983],[77.28635,20.15579],[77.29054,20.14994],[77.29759,20.14632],[77.30409,20.14392],[77.30585,20.14393],[77.30948,20.14321],[77.31272,20.14195],[77.31241,20.14118],[77.3125,20.13936],[77.31427,20.13711],[77.31587,20.13293],[77.31927,20.13125],[77.32057,20.12916],[77.32415,20.12791],[77.32724,20.12723],[77.32774,20.12326],[77.32655,20.11976],[77.32535,20.11459],[77.32464,20.10516],[77.32294,20.09885],[77.32213,20.09693],[77.32233,20.09654],[77.32168,20.09451],[77.32196,20.09344],[77.32446,20.09114],[77.32529,20.09117],[77.32611,20.09077],[77.32826,20.09134],[77.33181,20.09139],[77.33615,20.09637],[77.33705,20.0968],[77.33812,20.09686],[77.3408,20.09595],[77.34267,20.09642],[77.34807,20.09561],[77.3493,20.09366],[77.34815,20.08733],[77.34804,20.08221],[77.34878,20.07957],[77.35138,20.07749],[77.3535,20.07711],[77.3562,20.07726],[77.35497,20.07423],[77.35502,20.07337],[77.35376,20.07078],[77.3522,20.07027],[77.35262,20.06823],[77.35324,20.0671],[77.35252,20.06455],[77.35366,20.0645],[77.35425,20.06328],[77.35387,20.06263],[77.35594,20.0608],[77.35815,20.05939],[77.36029,20.0585],[77.36114,20.05719],[77.36243,20.05631],[77.36308,20.05622],[77.36475,20.05412],[77.36719,20.05243],[77.36837,20.05116],[77.36972,20.04955],[77.36982,20.0489],[77.3722,20.04688],[77.3726,20.04689],[77.36047,20.02617],[77.35789,20.02474],[77.35434,20.02047],[77.35545,20.01636],[77.35534,20.0141],[77.35388,20.0129],[77.35234,20.01341],[77.34987,20.01367],[77.34924,20.01129],[77.34791,20.00984],[77.34295,20.00813],[77.34081,20.00818],[77.3407,20.00722],[77.34155,20.00574],[77.34101,20.00403],[77.34049,20.00413],[77.33924,20.00208],[77.33735,19.99685],[77.33721,19.99307],[77.3364,19.99039],[77.33649,19.98409],[77.3369,19.97989],[77.33673,19.97777],[77.33721,19.97464],[77.33469,19.97348],[77.33169,19.97353],[77.33075,19.97482],[77.32807,19.97443],[77.32781,19.97391],[77.32598,19.97393],[77.32568,19.97348],[77.32467,19.97349],[77.32379,19.97073],[77.32126,19.96511],[77.32194,19.95925],[77.32082,19.96046],[77.31754,19.96245],[77.31297,19.96314],[77.31087,19.964],[77.30905,19.96409],[77.30393,19.96516],[77.30322,19.95327],[77.30014,19.94686],[77.29907,19.94387],[77.29262,19.93976],[77.28779,19.93774],[77.28442,19.93695],[77.28441,19.93285],[77.28486,19.93008],[77.28339,19.91637],[77.28355,19.9127],[77.28174,19.91563],[77.27963,19.91777],[77.27781,19.91861],[77.2738,19.91968],[77.27242,19.91984],[77.27115,19.91957],[77.26977,19.91861],[77.26909,19.91755],[77.26883,19.91006],[77.26951,19.90511],[77.26957,19.90234],[77.26846,19.90018],[77.26629,19.89764],[77.26366,19.8976],[77.25746,19.90152],[77.25584,19.90162],[77.2536,19.90008],[77.2516,19.89767],[77.25094,19.89589],[77.25013,19.89488],[77.24731,19.89436],[77.24635,19.89393],[77.24525,19.89246],[77.24439,19.89201],[77.24164,19.89172],[77.23908,19.88969],[77.23706,19.88939],[77.23635,19.88952],[77.23551,19.89067],[77.23405,19.89476],[77.23408,19.89746],[77.23853,19.89996],[77.24101,19.90197],[77.24472,19.90415],[77.24559,19.90552],[77.24523,19.9064],[77.24153,19.90978],[77.23891,19.91122],[77.23799,19.91269],[77.23678,19.92758],[77.23711,19.93233],[77.238,19.93371],[77.23819,19.93458],[77.23518,19.93867],[77.22536,19.93717],[77.222,19.93728],[77.21845,19.93851],[77.21638,19.93884],[77.21072,19.938],[77.20975,19.93815],[77.20704,19.9401],[77.20549,19.94211],[77.20375,19.94635],[77.20386,19.94858],[77.20446,19.94982],[77.20647,19.95227],[77.20728,19.95522],[77.20835,19.96268],[77.20793,19.96622],[77.20839,19.96898],[77.20975,19.97019],[77.21292,19.97063],[77.21417,19.97178],[77.21489,19.97331],[77.21381,19.97622],[77.21097,19.98002],[77.20857,19.98186],[77.20391,19.9867],[77.20367,19.98954],[77.20294,19.99019],[77.20012,19.99126],[77.19897,19.99124],[77.19446,19.98879],[77.19369,19.98602],[77.19334,19.98571],[77.18976,19.98455],[77.18507,19.98246],[77.18005,19.98107],[77.17788,19.97977],[77.17579,19.97694],[77.17481,19.97405],[77.17426,19.97055],[77.17298,19.96759],[77.1724,19.96663],[77.16948,19.96451],[77.16581,19.96412],[77.16358,19.96435],[77.15784,19.96569],[77.15467,19.9661],[77.15409,19.96591],[77.15207,19.96386],[77.14684,19.95996],[77.14177,19.95711],[77.13884,19.95428],[77.13624,19.95272],[77.13616,19.95265],[77.13545,19.95133],[77.13519,19.94869],[77.13575,19.94611],[77.13552,19.94393],[77.13361,19.94189],[77.1314,19.94137],[77.12939,19.94133],[77.12608,19.94242],[77.12506,19.94237],[77.12352,19.94194],[77.12072,19.93991],[77.11793,19.93943],[77.114,19.93992],[77.1124,19.93937],[77.1097,19.93678],[77.10818,19.93605],[77.10618,19.93423],[77.10483,19.93194],[77.10262,19.93143],[77.10184,19.93155],[77.09719,19.93407],[77.09365,19.9345],[77.093,19.93522],[77.0927,19.93625],[77.09277,19.93903],[77.09326,19.94173],[77.09305,19.9438],[77.09231,19.94508],[77.08392,19.95329],[77.08258,19.95554],[77.08272,19.95756],[77.08339,19.9601],[77.08444,19.96223],[77.08462,19.96404],[77.08174,19.96656],[77.07359,19.97001],[77.07079,19.97221],[77.0702,19.97305],[77.06936,19.97567],[77.07017,19.97826],[77.07043,19.98157],[77.06952,19.98243],[77.06372,19.98404],[77.06277,19.98521],[77.06238,19.98625],[77.06246,19.99182],[77.06161,19.99389],[77.05532,19.9968],[77.04707,19.99722],[77.04207,19.99903],[77.03755,20.00473],[77.03669,20.00829],[77.03575,20.00896],[77.03419,20.00932],[77.03003,20.00912],[77.02816,20.00995],[77.02551,20.00967],[77.02415,20.00824],[77.02108,20.00385],[77.01756,20.00194],[77.01245,20.0024],[77.01045,20.00348],[77.01253,20.00828],[77.01359,20.01214],[77.0145,20.02095],[77.01406,20.02561],[77.01333,20.02726],[77.00759,20.02872],[77.00731,20.03117],[77.0066,20.03306],[77.00547,20.03851],[77.00436,20.03998],[77.00323,20.04321],[77.00173,20.0444],[77.00185,20.04989]]]}}]}